id,name,address,lat,lon
1,"@VERANDA","",54.95652574258758,37.47917175292969
2,"100 домов","",56.06930460941198,38.56794823868404
3,"7 Миля","",55.77319707855933,37.19574709416497
4,"7 Хиллс","",55.73857488570988,37.1460472899048
5,"Аборино-люкс","",55.86859230911739,38.26758393459477
6,"Абрамцево 3","",56.24481582712812,37.93483816329342
7,"Авиатор","",55.354097467545365,38.270527953869646
8,"Аврора","",55.65837752109477,38.380391235119646
9,"Аврора","",56.02565814308975,37.63495445251465
10,"Австрийский дворик","",56.25406069207133,37.49534738197019
11,"Адамово поместье","",55.6763853662596,38.10109817481691
12,"Адамово Поместье-2","",55.673868638801174,38.09886657691652
13,"АдмиралЪ","",56.120458543734856,37.54654206112059
14,"Азарово","",55.66889730642447,37.08979438045651
15,"Аисты","",55.854311475297216,36.96521759033203
16,"Академия Парк","Москва, Троицкий, Первомайское",55.536573,37.158982
17,"Акатовские дачи","",56.11120953545866,36.6019307785034
18,"Аква Вилла","",56.146697043455596,37.52431869506836
19,"Аква Вилладж","",55.84278358562003,35.8655625984253
20,"Аква Форест","",56.216348704040584,37.53855988897703
21,"Акваполис","",56.07011916770015,36.8400764465332
22,"Акварели","",56.05715721961163,37.367164053381316
23,"Акварель","Московская обл, Раменский р-н",55.478113,38.208511
24,"Акватория Истры","",56.06326963124952,36.855789833313
25,"Аксаково","",56.03874628965116,37.61288918331297
26,"Аксеново","",56.07174979606018,37.97913986400147
27,"Акулово","",56.06887351894265,38.994598388671875
28,"Акуловские пруды","",55.17783318516152,36.4476792903198
29,"Акуловские усадьбы","",55.386109430138184,37.05291630067131
30,"Алекс парк","",55.84499603910242,36.91632684260253
31,"Александра","Москва, Новомосковский, Мосрентген",55.620947,37.473815
32,"Александровская Слобода","",56.268764219472175,37.45995053658453
33,"Александровские дворики","",56.36295651800179,38.53644468231198
34,"Александровские сады","",54.68399419736598,37.4721173080444
35,"Александровский","Московская обл, Красногорский р-н, Александровка д",55.751675,37.212495
36,"Александровы пруды","Москва, Троицкий, Щаповское",55.391631,37.380848
37,"Алексеевка","",55.24793338109036,37.21592547440184
38,"Алексеевка","",56.05232999576992,38.16659819569088
39,"Алексино","",55.93398488651286,36.98110556602478
40,"Алешкино","",56.084139464924576,36.55859920426019
41,"Алешкино-2","",56.08326233621857,36.55546945883793
42,"Алешкино-3","",56.08317551900737,36.55565205182495
43,"Алино","",54.63273674030007,37.90179237978509
44,"Альпийская долина","",56.279523998449555,37.532090409045395
45,"Альпийские горки","Московская обл, Солнечногорский р-н, Холмы д",56.098135,37.270895
46,"Альпийские луга","Московская обл, Клинский р-н, Тиликтино д",56.093269,36.602808
47,"Альпийский дворик","",56.25416469542341,37.467825753906254
48,"Альпийский парк","",55.31804150863538,37.08207207713622
49,"Амельфино","Московская обл, Волоколамский р-н",56.007831,35.970359
50,"Американ дрим","",56.28639272361982,37.68662452697754
51,"Аметист","",55.516483726369245,37.02675819396973
52,"Ангелово - Резиденц","",55.8586230498592,37.321672439575195
53,"Английские дачи","",56.202940197047305,36.42100891037603
54,"Английский квартал в Аносино","",55.8340237949967,36.98967933654785
55,"Андреевский Парк","",55.957897522211596,37.13361740112305
56,"Андреевское","",55.37681846539413,36.00468635559082
57,"Андрейково","",56.24601058330185,37.65669618389893
58,"Андрейково Лесное","",56.23690072039095,37.66373430035401
59,"Андрейково Лесное-2","",56.238771097577825,37.65838623046875
60,"Анненский лес","",56.431512612629305,36.9915246963501
61,"Антоновка","",55.573514673362205,37.41542868464967
62,"Антоновка 1","",55.60613352485814,38.52127095396736
63,"Антоновка 2","",55.60945233632322,38.52147906890866
64,"Антоновские усадьбы","",56.47257711137983,37.85965048018795
65,"Анютины глазки","",56.08801358735578,36.58872670972903
66,"Апрелевка парк","Московская обл, Наро-Фоминский р-н, Мартемьяново д",55.52251,37.06695
67,"Апрелевка Таун","",55.521440072103914,37.084007263183594
68,"Апрельская мелодия","",55.545326244905304,37.08364248275757
69,"Аргуново 1","",55.356526191003525,38.47695350646973
70,"Аркашино","",56.270239475533195,39.084205627441406
71,"Арнеево","Московская обл, Серпуховский р-н, Арнеево д",54.970293,37.573393
72,"Арнеевские дачи","Московская обл, Серпуховский р-н, Арнеево д",54.970293,37.573393
73,"Артек","Московская обл, Красногорский р-н, Нефедьево д",55.894253,37.1499
74,"Архангелово","Московская обл, Клинский р-н, Клин",56.331693,36.728716
75,"Архангельская Ривьера","Московская обл, Красногорский р-н, Архангельское п/о",55.789406,37.301204
76,"Архангельский","",55.34476574724636,36.43014618048096
77,"Архангельское","Московская обл, Красногорский р-н, Архангельское п",55.789406,37.301204
78,"Архангельское УПДП","",55.78045880345141,37.30077266693115
79,"Архангельское-Тюриково","",55.91781,37.556421
80,"Архаус","",55.90245830780213,37.26219177246094
81,"Астра - Лесные Усадьбы","",55.5840188091504,36.89374605449825
82,"Аусбург","",56.26462168656126,37.594669349609376
83,"Бавария CLUB","",55.405855057480494,37.2652347663452
84,"Баварская деревня","",56.264853543204865,38.45661163330078
85,"Баден-Баден","",55.52826403665842,37.375603245196544
86,"Бакеево","Московская обл, Солнечногорский р-н, Баранцево д",55.95628,37.122331
87,"Бакеево-2","Московская обл, Солнечногорский р-н, Баранцево д",55.95628,37.122331
88,"Баковка","",55.68092877987664,37.31278028305053
89,"Балакирево","",55.18033795806206,38.2708740234375
90,"Балтия","",55.78238819814344,37.08268618583679
91,"Барбизон","",54.697547132367895,37.17155456542969
92,"Барвиха НПИЗ","",55.734673666236795,37.273006439208984
93,"Барвиха Хиллс","",55.72905364773865,37.28524605560301
94,"Барвиха-2","",55.719109943218534,37.27712631225586
95,"Барвиха-Club","",55.7388997848386,37.276207602349814
96,"Барвиха-Village","",55.73996280328605,37.28006998333126
97,"Барвиха-XXI","",55.709800496733294,37.276465094415244
98,"Барселона","",55.78933785662642,37.114786863327026
99,"Барский луг","",55.443841916248296,37.507041740417435
100,"Барское","",55.88626603532159,36.81528447718506
101,"Барсово","",56.084345453200676,38.30117225646973
102,"Барсуки","Московская обл",55.815792,37.380031
103,"Бегичево","",54.97766292859325,37.64945983886719
104,"Бежин луг","Московская обл, Истринский р-н, Кострово д",55.893778,36.69653
105,"Белаго","",55.466204737413626,38.204612731933594
106,"Белое озеро","",55.13358304244603,37.26215686356204
107,"Белояр","Московская обл, Дмитровский р-н, Яхрома",56.28989,37.483858
108,"Белые росы - 2","",55.9046944009971,36.682371854782104
109,"Белый берег","Московская обл, Раменский р-н, Верхнее Мячково с",55.550662,37.97962
110,"Белый город","",55.915303414390436,37.189321517944336
111,"Бельведер","",56.05086153328716,37.34112549584961
112,"Бельведер","",56.107125841798705,37.783337402343705
113,"Бельгийская деревня","",55.56395395375874,37.39600767135016
114,"Бельгийское предместье","",55.5685160776946,37.39489187239997
115,"Беляевская слобода","Московская обл, Чеховский р-н, Беляево д",55.150957,37.335672
116,"Берег","",55.447575723768054,38.24992858863527
117,"Берег Истры","",56.066500607513525,36.859354734420776
118,"Берег ФМ","",55.25525108643951,37.84309387207031
119,"Берег HONKA","Московская обл, Истринский р-н, Куртниково д",56.054452,36.725779
120,"Бережки","Московская обл, Можайский р-н, Андреевское д",55.388491,35.993975
121,"Бережково","",56.09856648709057,36.852779388427734
122,"Березка","",55.50618030464306,38.09886932373047
123,"Березки","",54.73992414350694,37.32483184661862
124,"Березки","",54.64612803357599,37.96969413757324
125,"Березки","Московская обл, Одинцовский р-н",55.641737,36.900798
126,"Берёзки","",55.45859469598648,38.30181710355225
127,"Березовая Аллея","",55.82607110834643,37.01108112640384
128,"Березовая опушка","",55.506725892554286,38.10264312720949
129,"Березовая роща","Москва, Троицкий, Щаповское",55.391631,37.380848
130,"Березовая Роща","",56.338046795890975,38.51703643798828
131,"Березовка","",56.03906176546751,35.558624267578125
132,"Березовый Лес","",55.42874229702315,37.30725877916257
133,"Березовый мостик-1","",55.85537134802874,38.37867736816406
134,"Березовый мостик-2","",55.85537134802874,38.37944984436035
135,"Березовый парк","Московская обл, Раменский р-н, Софьино с",55.499346,38.17672
136,"Березы","",55.31237572982839,37.62314873729247
137,"Берендеев лес 3","",55.05585741564856,37.155418395996094
138,"Берендеевка","",55.89871841902164,36.70667644625246
139,"Берендеево царство","",55.0551199804517,37.154645919799805
140,"Бестужево","",56.18088862589702,37.60628022030028
141,"Биосфера","",54.96777028355401,37.61723895239254
142,"Бисерово Парк","",55.79322365414599,38.13311576843262
143,"Битягово","",55.39657272442366,37.82061796396488
144,"Благовещенка","Московская обл, Солнечногорский р-н, Благовещенка д",55.911007,37.229671
145,"Благодарово","Московская обл, Воскресенский р-н, Ивановка д",55.480903,38.400355
146,"Благодать","",55.54840059217579,37.34924369497071
147,"Ближнее Покровское","",55.55774827845225,37.27669658302
148,"Ближний берег","Московская обл, Волоколамский р-н, Вишенки д",55.847103,36.067889
149,"Бобровые угодья","",54.554544410585585,38.07037353515625
150,"Бобровый остров","Московская обл, Серпуховский р-н",54.944978,37.544432
151,"Богатырская застава-1","",55.05528283189294,37.154860496520996
152,"Богородское","",55.52853336308195,37.42621421813965
153,"Болтино","",55.97009983784913,37.66379356384277
154,"Большая вода","Московская обл, Истринский р-н, Верхуртово д",56.073685,36.738283
155,"Большие озера-2","",55.05521830592942,37.15481758117676
156,"Большое петровское","",55.205471605044885,37.42119312286377
157,"Большое Покровское","",55.5602818146902,37.2399577349488
158,"Большой Берег","",56.12106042504407,34.55217361450195
159,"Борисовка","",55.48238627700494,37.582293329577624
160,"Борисовка-2","",55.46934946388505,37.60134774241942
161,"Борисовка-парк","",55.470906324994985,37.610445795397936
162,"Боровик","",55.99561593052968,36.93496062000736
163,"Боровики-2","Московская обл",55.815792,37.380031
164,"Боровки","",55.18229826672193,36.519412994384766
165,"Боровое","",55.859032504131505,38.59479904174805
166,"Бортнево","",56.16094284589755,37.80215263366699
167,"Боярово","Московская обл, Раменский р-н, Татаринцево с",55.358683,38.347256
168,"Бремен","",55.56196420630343,37.34453253596803
169,"Бригантина","",56.00766361789134,37.57143296077879
170,"Бристоль","Москва, Новомосковский, Московский",55.602144,37.346551
171,"Британика","Московская обл, Истринский р-н, Петровское (Ленинский с/о) д",55.904216,37.086955
172,"Брусландия","Московская обл, Истринский р-н, Ермолинское с/п",55.913777,36.716562
173,"Бубново","",55.31973087950497,38.49918090797121
174,"Бузаево","",55.715130148568136,37.11906738203129
175,"Булгаков","Москва, Троицкий, Щаповское",55.391631,37.380848
176,"Булгаково Life","",55.71836060128424,38.28177452087402
177,"Бунгало CLUB-KUROVO","",56.27515459084745,37.55141068261719
178,"Бунин парк","",55.53483423627665,37.46586176884762
179,"Буньковские просторы","",55.84807116300021,38.60713013820805
180,"Буньковские сосны","",55.17323103075767,38.221092224121094
181,"Былово","",55.45029463691567,37.249612249768006
182,"Валуевская Слобода","",55.57411497076062,37.34794586026612
183,"Варварино-2","",55.38836279169627,37.24708301157227
184,"Васильевское","",55.93497175113025,37.919912338256836
185,"Васильково","",55.57073745711676,38.54930603004152
186,"Васильково","",56.377798981174806,38.095951080322266
187,"Васильково 2","",55.20106334033826,37.26785659790039
188,"Васнецово","Московская обл, Дмитровский р-н, Ваньково д",56.268047,37.701223
189,"Васнецово Парк","",56.27948435225079,37.68653869628906
190,"Ватутинки","Москва, Новомосковский, Десёновское",55.499571,37.36661
191,"Вау! Тутинки","",55.48772733296428,37.368050144610606
192,"Векшино","Московская обл, Дмитровский р-н, Редькино д",56.157047,37.253584
193,"Велегож-2","",54.69526542604806,37.27592468261719
194,"Велегож-4","",54.70105902371833,37.2959927352905
195,"Велегож-Парк","",54.775066597932046,37.36542070543214
196,"Велегож-Парк Эко","",54.73437426477079,37.32071197357175
197,"Велегожские дачи","",54.69867831596049,37.42370879974362
198,"Веледниково Club","",55.798000348683466,37.121171951293945
199,"Веледниково DELUXE","Московская обл, Истринский р-н, Веледниково д",55.799765,37.116016
200,"Велеми","",55.04431305451376,37.36092593226317
201,"Велиборы","",55.05457918600795,36.485252380371094
202,"Великие озера","",55.3813157198068,38.14856254554445
203,"Велино","Московская обл, Раменский р-н, Верхнее Велино д",55.442704,38.212356
204,"Величъ","",55.7538649237171,36.86370611114501
205,"Вельвет","",55.87322831214605,36.79384255606692
206,"Вельга","",56.12950763319112,36.67332592572632
207,"Вельга парк","",56.14134155069025,36.67940139770508
208,"Вельяминово","",55.197532582055054,37.97076494603266
209,"Вельяминовский Уездъ","",55.17494661199841,37.890472412109375
210,"Венский Лес","",55.179652005577495,36.71682067999268
211,"Веретенки","Московская обл, Истринский р-н, Веретенки д",55.921506,36.60907
212,"Вернисаж","",55.98810803494071,36.1285400390625
213,"Верхнее Сареево","",55.71676309701264,37.1887461307922
214,"Верхняя Искань","",54.802268028128864,37.280731201171875
215,"Веселёво","",54.78875969510723,37.279014587402344
216,"Веселево-2","",54.789403051421026,37.254981994628906
217,"Весенино","",55.52814472272227,37.12760925292969
218,"Весна","",55.84294011297761,38.332157135009766
219,"Вестерн (бывший Вест Кантри)","",55.93979558680774,36.89855280076904
220,"Вестфалия","",54.784500379221235,37.719785412609895
221,"Веткино","",54.96215536289311,36.53198761328122
222,"Визендорф","",56.101242990288824,38.0336119020385
223,"ВИК","",55.448619135614926,36.954758966809095
224,"Вилла Тоскана","",55.63133323404613,37.28716249107663
225,"Вилла Фортуна","",55.53270714670453,37.188207773449676
226,"Випушки","",55.41383746478493,37.291364151281755
227,"Витязь","",55.509485469570585,37.379608154296875
228,"Вишенка","",55.47522953171849,38.40039253234863
229,"Вишневый сад","Московская обл, Клинский р-н, Алексейково д",56.091838,36.555809
230,"Владевиль","",56.02153519653537,37.333945239587365
231,"Владычино","Московская обл, Солнечногорский р-н, Владычино д",56.026674,37.324443
232,"Внучок","",55.596172775130235,37.21026449049077
233,"Водопад","",56.27585015737966,37.721901199383524
234,"Воздвиженское","Московская обл, Серпуховский р-н, Каменка д",54.956011,37.460951
235,"Вознесенское","",55.32645890100456,37.115421295166016
236,"Волна","",55.548057597358074,35.934906005859375
237,"Волшебная страна","Московская обл, Серпуховский р-н, Пролетарский пгт",54.944978,37.544432
238,"Воронки","",55.79483795387601,37.27552466243287
239,"Вороново","",55.41693335080085,35.66917419433594
240,"Вороново-2","",55.41997807952758,35.67080497741699
241,"Воскресение","",55.68487061829608,37.14698616400142
242,"Воскресенки","Московская обл, Серпуховский р-н, Новинки д",54.978819,37.647109
243,"Воскресенские усадьбы","Московская обл, Ногинский р-н, Воскресенское с",55.927029,38.306553
244,"Воскресенское","",55.92701256732864,38.28545626634525
245,"Воскресенское","",54.56202184230143,36.32736725195309
246,"Воскресенское озезо","",55.92951373997464,38.305864421655315
247,"Воскресенское-Полесье","",55.886744931655336,38.29164505004883
248,"Восточные угодья","",55.7740627405231,38.238773345947266
249,"Восточный берег","",55.42605341216582,38.292500610119646
250,"Восточный сад","",55.644683069496715,38.376650248718306
251,"Восход","",55.178606209927636,37.85672657623286
252,"ВОТЧИНА Country Club","",56.38673276048231,39.616355895996094
253,"Времена года","Московская обл, Серпуховский р-н, Гавшино д",54.955675,37.336984
254,"Времена Года 2","",56.21062485545297,37.59484101098633
255,"Всходы","",54.99273416457247,37.56754345782474
256,"Высокий берег","",55.0280617658564,37.269084814453095
257,"Высоковские дачи","",56.33224217376392,36.57254219055176
258,"Высокое","Московская обл, Клинский р-н, Шипулино д",56.33291,36.524763
259,"Высоты","",55.04853162334867,36.45821571350098
260,"Высоты 2","Московская обл, Наро-Фоминский р-н",55.387776,36.522499
261,"Вяземские сады","Московская обл, Серпуховский р-н, Нижние Велеми д",55.03298,37.353522
262,"Вяземское","Москва, Новомосковский, Сосенское",55.57833,37.465892
263,"Гавань","",56.06743618189346,36.85758590698242
264,"Гагаринленд","",55.64767382043645,35.08387067949218
265,"Гайд Парк","",55.4335961481949,37.326077197009226
266,"Гармония","",56.01347242818336,38.39221009426274
267,"Гельвеция","Московская обл",55.815792,37.380031
268,"Гжель 2","",55.62344834643929,38.38357908721923
269,"Гжель Плюс","",55.594158442638744,38.46038818359375
270,"Глаголево Парк","",55.47024147482353,37.03703521954344
271,"Глазово","Московская обл, Можайский р-н, Глазово д",55.634176,35.771696
272,"Глазурный","",56.02885048138238,37.640703867321804
273,"Глебово","Московская обл, Истринский р-н, Глебовский п",55.942146,36.707139
274,"Голицыно 9","",55.55759552617312,36.99732732618406
275,"Головково","",56.49936531009251,36.562843322753906
276,"Головлево","",55.217358389540586,36.95369853668217
277,"Гольф и Яхт-клуб Пестово","",56.09444915206525,37.62087821960449
278,"Горки","",55.498764839019316,37.75506071895143
279,"Горки","",56.6657402189684,38.331726121521
280,"Горки 9-18","Московская обл, Клинский р-н, Афанасово д",56.093023,36.492971
281,"Горки XXI","Московская обл, Одинцовский р-н, Большое Сареево д",55.710778,37.183812
282,"Горки-8","",55.697981175066055,37.15299431219478
283,"Городец","",55.816352523017834,36.52942156791687
284,"Господиново","",56.07984342587308,39.71085548400879
285,"Государев двор","",55.216615032783224,37.41725291763919
286,"Гранд Руза Парк","Московская обл, Волоколамский р-н, Таршино д",55.853299,35.792088
287,"Графская Усадьба","",55.4047964827828,37.17036031534417
288,"Графские пруды","Московская обл, Наро-Фоминский р-н",55.387776,36.522499
289,"Графский лес","",55.48799698817745,37.14889550976568
290,"Грачевка","",55.10329489685696,36.825788365173366
291,"Грибаново","",55.74667919499998,37.12679594572751
292,"Грибники","",54.60627818101244,38.22315216064453
293,"Грибное","",55.21384596345544,36.8730354309082
294,"Грибово-2","",55.80147394036698,38.59651565551758
295,"Грибово-де-Люкс","",55.645327547833666,37.234139969958505
296,"Григорчиково","",55.506456194516964,37.90441557357178
297,"Грин Вэй","",55.876762658809746,36.7669191185181
298,"Грин Парк","",55.46009992809608,37.362949253503416
299,"Грин Хилл","",55.842940427154275,36.95538891068122
300,"Гринвич","",56.028491120470164,36.97985580460204
301,"Гринфилд","Московская обл, Истринский р-н, Истра",55.914287,36.860284
302,"Гусарская баллада","",55.66049704599451,37.2355842590332
303,"Давыдовское","",55.86396841793522,36.76459765434265
304,"Дарна","Московская обл, Истринский р-н, Дарна с",55.928481,36.932805
305,"Дарна 2","Московская обл, Истринский р-н, Дарна с",55.928481,36.932805
306,"Дарьино","",55.68245418442556,37.10709486400151
307,"Дача художника","",54.75157611616131,37.28279113769531
308,"Дачи писателей","",55.63853092123643,37.287453173046856
309,"Дачная провинция","",55.677802190524694,35.66256523132324
310,"Дачники","",56.877455393409896,37.59225711822512
311,"Дачный","",54.74433134306929,37.91207057647705
312,"Два ручья","",56.13383304125575,36.36448860168457
313,"Дворянское гнездо","",56.565098168297475,37.989426481164514
314,"Деревеньки","",55.130611919021256,36.199951171875
315,"Деревня Озерна","Московская обл, Рузский р-н, Нововолково д",55.772644,36.274079
316,"Десна-2","",55.49113992496027,37.28222924266356
317,"Деулино-3","Московская обл, Сергиево-Посадский р-н, Деулино с",56.35345,38.118814
318,"Деулино-4","",56.3541238426991,38.110198974609375
319,"Дивово","",56.370894616963085,38.387680875695764
320,"Дмитровка Парк","",56.2674815853819,37.69251633447266
321,"Дмитровка Village","Московская обл, Дмитровский р-н, Труневки д",56.274484,37.756326
322,"Дмитровка Village 2","Московская обл, Дмитровский р-н, Костино с",56.306603,37.717267
323,"Дмитровская слобода","Московская обл, Дмитровский р-н, Икша п",56.173658,37.502759
324,"Дмитровское полесье","",56.27142342876077,37.72118817987064
325,"Дмитроград","Московская обл, Дмитровский р-н, Горшково д",56.375115,37.414724
326,"Доброе","",56.08253475941869,37.957155202490185
327,"Добрынино","",55.93506790429283,39.90757942199707
328,"Добрыня","",55.64785795109126,37.09586041639409
329,"Довиль","Московская обл, Одинцовский р-н, ВНИИССОК п",55.65692,37.211758
330,"Долина","",54.71750670230697,37.49259076690669
331,"Долина Озер","",55.18549301512893,36.52817674791254
332,"Дольче Вита","",55.96762100786649,36.94045378406986
333,"Дом в Покрове","",55.75653456385334,36.13785266876221
334,"Дом у реки","",55.35009917754421,37.15988028360596
335,"Домик в лесу - 3","",56.25393271697121,37.69496262528082
336,"Домодедово Таун","",55.39349326400424,37.763915061950684
337,"Дорино","Московская обл, Шаховской р-н, Дор д",55.800524,35.518973
338,"Дракино Вилладж","",54.8852969074442,37.28279113769531
339,"Дубки","",54.74364976592378,37.360382080078125
340,"Дубки","",56.108810038002154,38.67908477783203
341,"Дубна Ривер Клаб","",56.725850263617076,37.2369035720825
342,"Дубрава","",55.9831891476761,37.613718723864736
343,"Дубрава","Московская обл, Павлово-Посадский р-н, Павловский Посад",55.779393,38.651318
344,"Дубрава у Озера","",55.08887579838023,37.46321073704837
345,"Дубрава-2","Московская обл, Чеховский р-н, Прохорово д",55.298927,37.642231
346,"Дубровка","",54.73761660695969,36.36032623632809
347,"Дубровский лес","Московская обл, Сергиево-Посадский р-н, Скорынино д",56.652863,38.107406
348,"Дудкино","Московская обл, Солнечногорский р-н, Дудкино д",56.079081,37.013788
349,"Духанино","Московская обл, Истринский р-н, Духанино д",55.974363,36.948372
350,"Духанино 3","",55.979436088184734,36.95049597462162
351,"Духанино парк","",55.978216569896695,36.944618225097656
352,"Душоново","",56.060429467672925,38.304356450695764
353,"Дюна","Московская обл, Пушкинский р-н, Ординово д",56.156872,37.715426
354,"Дятловка Форест","",55.74078628875235,38.07509422302246
355,"Европа","Московская обл, Красногорский р-н, Дмитровское с",55.753463,37.122017
356,"Европа-2","",55.742475277244786,37.059485113946494
357,"Европа-3. Английский квартал","",55.74752385133469,37.078457401690684
358,"Европейская долина-2","Москва, Троицкий, Щаповское",55.391631,37.380848
359,"Европейский квартал","Московская обл, Раменский р-н, Прудки д",55.51643,37.952186
360,"Единство","",55.27157182128052,37.66950173414307
361,"Екатерининская Слобода","",55.178506560991245,37.00407446197505
362,"Екатерининское подворье","",56.2398845430682,37.71988836517335
363,"Елизарово-Парк","",55.49919844680981,37.135934829711914
364,"Елизарово-Park","",55.50055613016829,37.15372417449953
365,"Елки","",55.99864756480717,37.30208005750728
366,"Елки","",56.3858774893313,36.872520446777344
367,"Ёлочка","",55.778165995937634,37.189064025878906
368,"Ёлочки","",56.2251267650503,38.13955307006836
369,"Еремеево Life","Московская обл, Истринский р-н, Еремеево д",55.940986,37.025807
370,"Есенино","Москва, Новомосковский, Филимонковское",55.570014,37.322368
371,"Ефимовский лес","",55.7091255947123,38.76405715942383
372,"Жаворонки-1","",55.6432566089236,37.067965442639206
373,"Жемчужный","",55.84428943160727,38.8531494140625
374,"Живописный","Московская обл, Дмитровский р-н, Каменка д",56.178228,37.301249
375,"Жилино","",56.06698319280215,37.238329852624474
376,"Жуковка","Московская обл, Пушкинский р-н, Жуковка д",56.050652,37.992538
377,"Жуковка XXI","Московская обл, Одинцовский р-н, Жуковка д",55.737963,37.25318
378,"Журавли","",55.37591412074456,35.96368841975709
379,"Журавли","Московская обл, Красногорский р-н, Опалиха мкр",55.827732,37.252731
380,"Завидово","",56.57934276597055,36.5460205078125
381,"Завидово Honka","",56.58241544930691,36.53872489929199
382,"Загородный квартал","",55.95703264518511,37.479257583618164
383,"Загородный клуб Раздолье","",55.9751892151952,37.77370229188227
384,"Загорское","",56.28895242499064,37.77226235584715
385,"Загорье","",55.52565453967613,38.33603206190185
386,"Загорье","",55.81830682027122,36.49615287780762
387,"Загорянский","",55.87924802844163,37.93485533680416
388,"Залесье","",56.356775272439066,38.54236699981686
389,"Залесье","",56.150856598810634,37.714433670043945
390,"Заокские пейзажи","",54.726444547633214,37.38731658782956
391,"Западная долина","Москва, Новомосковский, Марушкинское",55.59516,37.208273
392,"Западная Резиденция","",55.665779895622414,37.148660411608944
393,"Западная ривьера","",56.010186640785584,36.81243896484375
394,"Западный","",55.82192325111821,36.361656188964844
395,"Западный парк","",55.58719005012323,36.89185696477057
396,"Заповедная поляна","",55.008388074304044,36.35049819946289
397,"Заповедное","Московская обл, Клинский р-н, Вертково д",56.118575,36.405395
398,"Заповедное озеро","",56.07003120422007,37.33043957916266
399,"Заповедное озеро","",54.965100207777446,37.57650375366211
400,"Заповедное озеро","",56.25193374836576,36.265869140625
401,"Заповедные поляны","",54.75577675081771,37.290499571228
402,"Заповедный","",55.38780376644447,37.76639475489503
403,"Заповедный Берег","",56.09938032678389,39.02498245239258
404,"Заповедный бор","",55.44089885167212,38.60527522760003
405,"Заповедный Край","",56.093391244830165,39.03124294993893
406,"Заповедный парк","Московская обл, Щелковский р-н, Оболдино д",55.881399,37.928857
407,"Заповедный парк","",56.10263551353687,39.00979042053223
408,"Заречный","",55.890090272270804,36.87140464782715
409,"Заречье","",55.847614338321726,36.593828201293945
410,"Заречье","",55.490039337819034,37.30390548706055
411,"Заречье","",54.732946732000336,37.0733642578125
412,"Заречье Виладж","",54.75552063488467,37.52196540832517
413,"Заречье-2","",54.73195556729821,37.06718444824219
414,"Затеевка","",56.503344510955564,37.0048713684082
415,"Захарьино","",55.53397392495738,36.20364189147949
416,"Захарьино-2","",55.527950401102544,36.20595932006836
417,"Защепино","",56.179292065863706,37.65134811401367
418,"Звенигородская усадьба","",55.69451710730985,36.81315103801876
419,"Звенигородский лес","Московская обл, Одинцовский р-н",55.641737,36.900798
420,"Звенигорье","",55.73558068031571,36.70924392012944
421,"Зеленая долина","",55.56336055853325,38.01990234351808
422,"Зеленая опушка","",55.47005935361632,38.32717620826418
423,"Зеленая опушка 2","",55.45311389872796,38.2474422454834
424,"Зеленая роща","",55.98985282937505,37.941893674487346
425,"Зеленая роща 1","",55.584746471282344,36.93065325054317
426,"Зеленоградский","Московская обл, Солнечногорский р-н",56.121496,37.057958
427,"Зеленцино","",56.291667521124914,38.7380659103394
428,"Зеленые дали","Московская обл, Дмитровский р-н, Семеновское с",56.322854,37.124532
429,"Зеленые Холмы","",55.52374158628491,37.102452983020044
430,"Зеленый берег","",56.143675643638694,37.75655822753902
431,"Зеленый бор","Московская обл, Пушкинский р-н, Тарасовка с",55.963304,37.815256
432,"Зеленый город","",56.05835794361794,37.36707588533932
433,"Зеленый Квартал","",55.93191748313193,36.84098696708679
434,"Зеленый Мыс","",56.1045353359731,37.62068699570318
435,"Зелёный Парк","",56.34616877045181,38.44741903487545
436,"Земляничная поляна","",54.73713287724549,36.18437207817385
437,"Земляничные поля-2","",55.374770198357325,38.38829040527344
438,"Земляничный","",55.14432273060526,37.57644415056154
439,"Зимний сад","",55.527178619343324,37.172431159973144
440,"Златово","",55.03199725417779,37.24741256561276
441,"Золотая долина","",55.5263380397076,37.05034332275386
442,"Золотая подкова","",55.42248675962579,38.50716590881348
443,"Золотой бор","",56.20434083281466,37.2451114654541
444,"Золотые луга","",56.20178655974946,37.849273681640625
445,"Золотые Пески","",55.6321851207613,35.772800968585216
446,"Золотые Сосны","",56.20503308312929,38.52201461791992
447,"Зосимово","Москва, Троицкий, Новофёдоровское",55.42564,36.931879
448,"Зубрвиль","",54.89580200803633,37.4937466415405
449,"Зыковский Уездъ","",56.06494467071301,36.691246032714844
450,"Ивакино-Покровское","",55.94884156480532,37.448786700769006
451,"Иванов лес","",55.50535397005198,38.841819763183594
452,"Иванов лес-2","",55.504527618116825,38.836669921875
453,"Иванова Фазенда","",54.55125908925347,38.37627410888672
454,"Ивановское","",55.78896234670123,37.09661771411129
455,"Ивантиновские ключи","",55.017630852568274,37.31659210052487
456,"Иволги","",55.87870402552542,36.965527296066284
457,"Ивушка","",55.37458606643083,38.47120010352785
458,"Иглово","",55.789602476757636,36.67805353435665
459,"Игнатово-2","",56.17260975373129,37.54016686242676
460,"Идальго","Московская обл, Истринский р-н, Карасино д",55.874587,36.534411
461,"Идиллия","",55.43819932833847,37.34746056590575
462,"Изумрудная долина","Москва, Троицкий, Первомайское",55.536573,37.158982
463,"Изумрудная долина","",54.73760488133717,37.30313301086426
464,"Изумрудные холмы","",55.17876932602435,37.971954112719686
465,"Изумрудный ","",55.493862885442724,37.31754857097167
466,"Изумрудный берег","",55.36724109687758,37.17631417308348
467,"Изумрудный город","",55.964892524028144,36.82338823139651
468,"Изумрудный город","",55.532990064028304,38.4312855862305
469,"Изумрудный ручей","",56.15334255486675,38.385629653930664
470,"ИКШАвиль","",56.12603603081038,37.59452819824219
471,"Иллюзион","",55.56533962249877,37.73760795593262
472,"Ильинка","",55.763114481,37.250097388330005
473,"Ильино","",55.820717811517355,35.628318786621094
474,"Ильинская Слобода","",55.53912233502375,36.0406494140625
475,"Ильинские пруды","",56.049033533749586,35.74298858642578
476,"Ильинские Усадьбы","",55.18273670377842,37.009733165917964
477,"Ильичевка","",54.94638366355988,36.48529571874997
478,"Ильичевка Премиум","",55.511168732640385,37.26729470286864
479,"ИмпериалЪ","",55.540852775295306,37.193716622228976
480,"Искона","",55.64931118969408,35.83637237548828
481,"Исконы","",55.8360000202069,35.59844970703125
482,"Ист-ривер","",55.17993277992538,36.706119915771524
483,"ИСТРА","",55.91512749010086,36.80066290056152
484,"Истра Вилладж-2","",56.09018772550368,36.80917739868164
485,"Истра Кантри Клаб","",55.86321416383818,36.776302051684524
486,"Истра-Лэнд","",56.06077785078196,36.848622970825204
487,"Истраград","",56.14509742992829,36.86033150057369
488,"Истринская Ривьера","Московская обл, Солнечногорский р-н, Трусово д",56.044659,36.884987
489,"Истринская Слобода","",55.821201422229855,37.08167686767581
490,"Истринские Усадьбы","",55.89539179350109,36.73649213945316
491,"Истринские Холмы","",55.908440837837205,36.582781697863766
492,"Истринский лес","Московская обл, Истринский р-н",55.913777,36.716562
493,"Истринский плес","",56.07308939844543,36.729440689086914
494,"Истрия","",55.97780332450417,36.92212893208011
495,"Истья-3","",55.15884155548563,36.78892408447268
496,"Истья-4","",55.1584492707165,36.79218565063479
497,"Кабаново лесное","",55.88351872482078,38.26895722561039
498,"Калинино","",56.42909214439102,38.58115196228027
499,"Калинка","",55.95441849508488,36.802188051342796
500,"Калинка","",55.34942758821892,38.367681842041065
501,"Калинка-Малинка","",54.59931784510926,37.44518280029297
502,"Калужские Усадьбы","",55.534508225271026,37.42591381072998
503,"Каменный остров","",56.06393843785892,36.77441596984863
504,"Капитан Club","",54.7246201949245,37.47779846191406
505,"Капитан Land","",54.72838717361352,37.45513916015625
506,"Капитанская дочка","",54.69947190073655,37.50885284271237
507,"Капитанский мыс","",54.72882362571015,37.54593170013425
508,"Капитолий","",55.53081959183827,37.15595846687006
509,"Капустино","Московская обл, Раменский р-н, Капустино д",55.657372,38.135388
510,"Караваево озеро","",55.27950638906288,37.982826232910156
511,"Караваево озеро-2","Московская обл, Домодедовский р-н, Введенское с",55.285892,38.011645
512,"Караси на Волге","",56.90037884563363,37.47977256774902
513,"Караськина охота","Московская обл, Серпуховский р-н, Тверитино д",54.988236,37.327632
514,"Караськово","",54.90030293114211,36.374359130859375
515,"Каринское","Московская обл, Одинцовский р-н, Каринское с",55.711701,36.688095
516,"Карповские дачи","",55.57111323542527,38.560079916552695
517,"Карповы Вары","",55.88139532398041,36.87517836079098
518,"Картошкино","",54.530993759945396,37.39368438720703
519,"Карцев ручей","",56.04848100017355,36.70726275444031
520,"Каскад","",55.69064694665575,36.69410387310177
521,"Катуар Парк","",56.1046459325676,37.485008239746094
522,"Кедры","",55.801137674790915,37.090774920654326
523,"Кембридж","Московская обл, Истринский р-н, Красный Поселок д",55.804698,36.981385
524,"Киевская Русь","",55.002825988912655,36.572625123352054
525,"Киселево","",55.88875903540938,36.74015226518554
526,"КитежградЪ","",56.06666958021946,37.77176856994629
527,"Классика","Московская обл, Воскресенский р-н, Алешино сл",55.427637,38.532021
528,"Клевер","",55.88216050114784,36.80085875069585
529,"Клеверная дымка","",55.191181235404876,38.2436058476319
530,"Клейменово на Наре","",55.026486366510746,37.31442424340821
531,"Кленово","Московская обл, Красногорский р-н, Красногорск",55.831099,37.330192
532,"Кленовый парк","Московская обл, Истринский р-н, Подпорино д",55.926807,37.003538
533,"Клуб 2071","",55.61373511347607,37.11491961790773
534,"Клуб 39/07","Московская обл, Щелковский р-н, Сутоки д",56.010478,38.171509
535,"Клубничные поля","",55.57739609659437,37.14012180997315
536,"Клязьминский парк","",56.00106874556044,37.56946563720703
537,"Княжий бор","",55.96519108883075,37.800331878662064
538,"Княжье Озеро","",55.80316381100816,37.049318698120146
539,"Князево","Московская обл, Можайский р-н, Денисьево д",55.517679,36.16514
540,"Князь Волконский","",55.55883548258869,37.671260833740234
541,"Ковалево","Московская обл, Можайский р-н, Ковалево д",55.572187,35.82661
542,"Ковалевские усадьбы","",54.73675287732732,37.33753478851315
543,"Ковчег","",55.14569791514671,36.845057354736355
544,"Коктебель","",55.062176720399464,37.61397685562747
545,"Коломенские сады","Московская обл, Коломенский р-н, Черкизово с",55.202229,38.740413
546,"Командор","",56.12597333505523,37.55099247666021
547,"Комарово","",56.112782270432746,36.671762466430664
548,"Комильфо","Московская обл, Пушкинский р-н, Могильцы д",56.105264,37.981704
549,"Комлево","",55.16048440122637,39.05794143676758
550,"Конаково Ривер Клаб","",56.69661598915465,36.764220624823
551,"Конное подворье","",55.186610290720594,37.96663261003414
552,"КонтинентЪ","",55.57287261656855,38.402363891369646
553,"Кореньки FR","",55.97869679653284,36.47787094116211
554,"Королевские сосны","",55.91357173806502,37.885751724243164
555,"Котово","",55.8788648470056,36.757805538317825
556,"Красивая земля-2","",54.79989326366303,37.26837158203125
557,"Красково-парк","",55.68636824239298,38.02216511734014
558,"Красная Поляна","",54.74329334181258,37.54627502288815
559,"Красная Поляна","",55.625088432606624,35.597076416015625
560,"Красная Сторожка 1","",56.41712992192232,38.10178756713867
561,"Красная Сторожка-2","",56.414756017765384,38.09904098510742
562,"Красновидово-2","Московская обл, Серпуховский р-н, Пирогово д",54.944978,37.544432
563,"Красные пруды","",55.30991096478876,37.82078962534183
564,"Крекшино","",55.6010812203527,37.109598115222184
565,"Кремлевский","",55.96933130159193,36.07884407043457
566,"Криушино.ру","",55.54125921294101,35.90503692626953
567,"Крона","",55.84162947863701,36.995362486108434
568,"Кронбург","Москва, Новомосковский, Воскресенское",55.529619,37.445752
569,"Кружева","Московская обл, Солнечногорский р-н, Овсянниково д",56.113853,37.132814
570,"Крючково-2","",55.877542198872334,36.83263483201904
571,"Кстининское озеро","Московская обл, Пушкинский р-н, Раково д",56.105802,37.765758
572,"Кубинский Лес","",55.48974757273688,36.63545608520508
573,"Кудиново-люкс","",55.764796313369494,38.202773277392566
574,"Кузнецы","",55.8475661532989,38.663291931152344
575,"Купавна Life","",55.73436057356803,38.089073063867204
576,"Курорт Пирогово","",55.98625575786746,37.68833435848387
577,"Куртасово","",55.99271764395732,36.89289367863773
578,"Куртниково","Московская обл, Истринский р-н, Матвейково д",56.018912,36.757301
579,"Курше-Вель","",55.835212694620225,37.056827474975535
580,"Кутузово Club","Московская обл, Солнечногорский р-н, Юрлово д",55.901566,37.265729
581,"Кутузовская слобода","",55.961850254600876,37.18091001883545
582,"Кутузовские холмы","",55.54844604095864,38.02745819091797
583,"Ла-Манш","Московская обл, Истринский р-н, Алексеевка д",55.879561,36.572122
584,"Лагуна","",55.816909395249695,38.118255497949235
585,"Лазурная долина","",55.52587228782238,38.29370223975832
586,"Лазурный берег","Московская обл, Мытищинский р-н, Пестово д",56.062343,37.689941
587,"Лайм","",56.15817058689031,36.37779235839844
588,"Ламино","",55.962461830837,36.06914520263672
589,"Лапино-Град","",55.66741793633422,37.11579004558712
590,"Лапландия","",56.21614900822057,37.622620370385675
591,"Ларево","",55.53079012269987,37.37525992244264
592,"Лебединое","Московская обл, Воскресенский р-н, Барановское с",55.403727,38.757481
593,"Левашово","Московская обл, Серпуховский р-н, Левашово д",54.935384,37.506056
594,"Левашово Озеро","",54.949172224334774,37.51468932952878
595,"Левшино","",54.573255739231655,37.125205993652344
596,"Лесная Богемия","Московская обл, Истринский р-н, Синево д",56.016708,36.738014
597,"Лесная бухта","",56.051382277169225,36.819562911987305
598,"Лесная Губерния","Московская обл, Можайский р-н, Бабаево д",55.346532,35.925551
599,"Лесная Купавна","",55.81471323531728,38.09523591213383
600,"Лесная лагуна","",56.065627271366104,37.79690533640132
601,"Лесная лагуна","",55.23363258922296,37.81254987924808
602,"Лесная опушка","",55.845758241707074,38.35787781887211
603,"Лесная поляна","Московская обл, Дмитровский р-н, Андрейково д",56.231698,37.314445
604,"Лесная пристань","",55.97943952423309,36.842368833898945
605,"Лесная пристань-2","",55.97900766119553,36.840128660202026
606,"Лесная радуга","Москва, Троицкий, Киевский",55.42944,36.867102
607,"Лесная Рапсодия","Московская обл, Истринский р-н, Новодарьино д",55.891173,36.670452
608,"Лесная Рапсодия 2","",55.930324510184164,36.59363927995605
609,"Лесная резиденция","",55.86211531538645,36.7822265625
610,"Лесная симфония","",55.58033697480671,37.418766552636725
611,"Лесная Сказка","",56.183950300752855,37.917177047729524
612,"Лесная сказка","Москва, Троицкий, Первомайское",55.536573,37.158982
613,"Лесная Сказка 2","",54.75866767165648,37.37609039306642
614,"Лесная слобода","",55.571406825469246,37.26761898944096
615,"Лесная Усадьба","",56.152579351901316,37.42778698098141
616,"Лесницыно (Riga Forest)","",55.9048448851402,36.58614697534176
617,"Лесное озеро","",55.57694850772744,38.303486938244646
618,"Лесное озеро","Московская обл, Подольский р-н, Красная Пахра д",55.444829,37.554816
619,"Лесное озеро","",56.049360028190925,38.100910949706986
620,"Лесное озеро","",54.985730852881055,37.3179653915405
621,"Лесное озеро-1","",56.51918266879133,37.88078583796391
622,"Лесное озеро-2","",55.40301984313231,37.31947370175783
623,"Лесное Стрешнево","",55.611323236433364,35.58145523071289
624,"Лесное царство","",56.11187300039777,37.749366760253906
625,"Лесной","",55.91717930979717,37.005558013916016
626,"Лесной","Московская обл, Щелковский р-н, Оболдино д",55.881399,37.928857
627,"Лесной","",55.92131557891041,36.613311767578125
628,"Лесной городок","",55.641331930483986,37.20689257153322
629,"Лесной городок","",55.494999013597386,38.37541580200195
630,"Лесной край-2","",54.934809932265615,38.18190669847411
631,"Лесной островок","Московская обл, Дмитровский р-н, Селевкино д",56.182236,37.604708
632,"Лесной Парк","",56.244224776375866,37.66843286743165
633,"Лесной пейзаж","Москва, Троицкий, Краснопахорское",55.421496,37.270661
634,"Лесной пейзаж-2","",55.42845986575276,37.17940407786864
635,"Лесной Простор 1","",55.70354336687885,37.11076561346431
636,"Лесной родник","",56.244892460917654,37.63834921112061
637,"Лесной родник-2","",56.20975914792473,37.67984390258789
638,"Лесной родник-3","",56.20937726533161,37.68035888671875
639,"Лесной родник-4","",56.206703980680786,37.68241882324219
640,"Лесной ручей","",55.6517305550306,37.22531000408321
641,"Лесной ручей","",55.78217228729694,35.3953742980957
642,"Лесной ручей-3","",55.65381288413284,37.219988501397665
643,"Лесной VIP","",55.87415520284497,37.923173904418945
644,"Лесные дачи","",54.693281229292246,37.26287841796875
645,"Лесные Ключи","",55.3241345949799,37.14609295810544
646,"Лесные озера","Московская обл",55.815792,37.380031
647,"Лесные озера 1","",56.29324173676307,38.48834038085943
648,"Лесные озера 2","",56.296290005705224,38.48593712158208
649,"Лесные просторы","Московская обл, Одинцовский р-н",55.641737,36.900798
650,"Лесные просторы лайт","",55.36467361856226,36.01764678955078
651,"Лесные узоры","",56.20407825184022,37.25069046020508
652,"Лесогорье","",55.884939771978836,36.7287540435791
653,"Летний","Московская обл, Можайский р-н, Дерново д",55.671209,35.650001
654,"Летова роща","",55.56932234155844,37.40572028798829
655,"Летово-Парк","",55.56254638304203,37.40347494124762
656,"Лешково","",55.81121764071278,37.09739685058594
657,"Ливадия","",55.2011856037474,36.95234571533206
658,"Лимберова гора","",54.7342071103601,37.37411974794918
659,"Линден Парк","",55.43128455728089,37.254420099597155
660,"Лион","Московская обл, Одинцовский р-н, Чигасово д",55.687898,36.957293
661,"Липки парк","",55.76160342679776,36.966101324883994
662,"Лисавино","",55.96476780314463,36.997833251953125
663,"Лисенки","",55.04626091423536,37.26930039731451
664,"Лисички","",56.060558901582056,36.726832151412964
665,"Лисичкин лес","Московская обл, Солнечногорский р-н, Чашниково д",56.03271,37.167067
666,"Лисичкино","Московская обл, Ступинский р-н, Кишкино д",55.168239,38.019191
667,"Литовская деревня","",55.63812184162604,37.094744617443894
668,"Лопотово","",56.06147283952076,36.84299370150143
669,"Лосиноостровские усадьбы","Московская обл, Щелковский р-н, Супонево д",55.880667,37.94199
670,"Лосиный остров","",55.877429406597244,37.927894592285156
671,"Лосиный остров-2","Московская обл, Щелковский р-н, Оболдино д",55.881399,37.928857
672,"Лосиный парк","",55.89676913338069,37.92095076527096
673,"Лосиный парк-2","",55.90369837605151,37.938803548474084
674,"Лугано","Московская обл, Одинцовский р-н, Красная Горка п",55.718405,37.15962
675,"Луговой","",55.732523148477725,38.76182556152344
676,"Луговой-2","",55.44432018895512,38.34775548740231
677,"Лужайкино","",55.43108975745644,37.19511109385985
678,"Лужки","",55.868136039630826,36.95337188950202
679,"Лужки-2","",55.8678952411376,36.954831011206124
680,"Лужок","",54.72065457593074,37.305450439453125
681,"Лукоморье","Московская обл",55.815792,37.380031
682,"Лукошкино","Московская обл, Раменский р-н, Кузяево д",55.611612,38.534456
683,"Лукьянова роща","",56.33495427924077,37.087697982788086
684,"Лыткино","",55.4429886353206,36.04785919189453
685,"Лыткинские Зори","",55.44342680146446,36.03309631347656
686,"Львовские озера","",56.095815336715845,35.72409362792973
687,"Любимово","Московская обл, Можайский р-н, Батынки д",55.673397,35.698187
688,"Маврино","",56.134646135365365,38.36700439453125
689,"Макарьево","",57.21765665005018,37.75468826293945
690,"Максимкино","",55.45170235923243,38.27739715576172
691,"Малахитовая поляна","",55.27864355668454,38.52473836704098
692,"Малаховка-Парк","",55.63381035051649,38.02968978881836
693,"Малаховское озеро","Московская обл, Люберецкий р-н, Малаховка дп",55.64258,38.009373
694,"Малеевские просторы","",54.79319227788542,38.081893354315184
695,"Малеевские Пруды","",56.21660852095581,36.63369655609131
696,"Маленькая Италия","Московская обл, Истринский р-н, Новинки д",55.810157,37.137701
697,"Маленькая Шотландия","Московская обл, Солнечногорский р-н, Лунево п",55.99361,37.340119
698,"Малина-village","",56.54053457150824,36.884708404541016
699,"Малинки","",55.44764431136689,37.15614396129149
700,"Малинки-2","",55.31449397536648,38.555145263671875
701,"Малиновка","",56.09540671112574,38.310699462890625
702,"Малиновка парк","",55.49193241144891,37.18637895576171
703,"Малые горки","",56.21286180299986,37.5868034362793
704,"Маринино","Московская обл, Дмитровский р-н, Маринино д",56.346337,37.417904
705,"Марково-Курсаково","Московская обл, Истринский р-н, Марково-Курсаково д",55.976519,36.642155
706,"Марсель","Москва, Троицкий, Вороновское",55.323848,37.123122
707,"Мартемьяново","Московская обл, Наро-Фоминский р-н, Мартемьяново д",55.52251,37.06695
708,"Мартемьяново парк","",55.526881615035116,37.06443786621094
709,"Мартьяново","Московская обл, Серпуховский р-н, Мартьяново д",54.958715,37.555148
710,"Марусин луг","",55.70078422402989,37.984742937164356
711,"Марусин сад","",55.6947462965564,37.992244724951206
712,"Матренино","",55.986427624633656,36.133432388305664
713,"Матрешкино","",54.95966179824521,37.32136716688228
714,"Махринская слобода","",56.26975038543966,38.66003386230466
715,"Маяк","",55.64846151604888,35.73022894710084
716,"Маяковский","Московская обл, Раменский р-н, Бояркино д",55.455969,38.296914
717,"Медведево","",55.40293107733623,37.17820244822997
718,"Медвежье озеро","",56.041639923512996,38.07750594105221
719,"Медовое","Московская обл, Дмитровский р-н, Ассаурово д",56.240353,37.708527
720,"Медынские усадьбы","Московская обл",55.815792,37.380031
721,"Между лесом и рекой","",55.824362764850484,37.10397744066154
722,"Мелоди","",55.86897722554294,36.793436765670776
723,"Мельниково","",54.812359220481866,37.435569763183594
724,"Место под солнцем","Московская обл, Клинский р-н",56.364241,36.610768
725,"Мечта","",56.06386612240575,37.36913815921628
726,"Мечта","",54.67980622834637,37.834844442773374
727,"Мечтаево","Московская обл, Можайский р-н, Ваулино д",55.371152,35.880671
728,"Мещерское полесье","",55.280410688193804,37.616529784130876
729,"Миллениум Парк","",55.782676955190475,37.041721867022716
730,"Мисайлово","",55.56446599466932,37.808074951171875
731,"Мистраль","",55.94463395082052,36.89080238342285
732,"Митяево","",55.36233219221649,36.12973877081299
733,"Михайловская слобода","",55.96505604002183,36.83887481689453
734,"Мишино","Московская обл, Химки",55.88874,37.43039
735,"Мишкин лес","Московская обл, Дмитровский р-н, Шихово д",56.17716,37.284387
736,"Можайская Слобода","",55.54407582912375,35.979881286621094
737,"Можайские Сады","",55.510846339179686,36.1669921875
738,"Можайское море","Московская обл, Можайский р-н, Тихоново д",55.542946,35.98651
739,"Можайское раздолье","",55.51162395783288,36.20540142059326
740,"Монастырское озеро","",55.860050823904196,36.516091742211984
741,"Монтевиль","",55.78995226013121,36.971445164501915
742,"Морозово","",55.39077431115061,38.35584365821535
743,"Морозово Хаус","",56.171513465354785,37.574350331884716
744,"Морозоff","",55.3874969968978,38.350868225097656
745,"Москва Река 2","",55.4042269653915,38.39652740455324
746,"Москворечье","",55.382231232087776,38.49163055419922
747,"Московские холмы","",55.45176195914087,38.3201380918091
748,"Московское море","",56.56896807771938,36.41334477033081
749,"Московское море 2","",56.56785738481378,36.40933485185542
750,"Набережный","Московская обл, Долгопрудный",55.933564,37.514104
751,"Надеждино","",56.200736155109034,36.73356056213379
752,"Надовражино","Московская обл, Истринский р-н, Дедово-Талызино д",55.91856,37.093953
753,"Назарьевские пруды","",55.98724383304718,37.27892875671387
754,"Наполеон","",55.49179005986205,37.266222916931156
755,"Нахабино Кантри","",55.870392893979556,37.18782543081056
756,"Незабудкино","Московская обл, Серпуховский р-н, Тверитино д",54.988236,37.327632
757,"Немецкая деревня","",55.93249572500143,37.20344066619873
758,"Немо","",56.12505150530339,37.54757202938231
759,"Нерль","",57.07657472276207,37.979736328125
760,"Нерощино","Московская обл, Дмитровский р-н, Нерощино д",56.245985,37.624085
761,"Нескучное","Московская обл, Истринский р-н, Курово д",56.027117,36.608953
762,"Никитино","",55.70008187619194,35.60368537902832
763,"Никитино-2","",55.701291050672815,35.59089660644531
764,"Никитские Озера","",56.11225585355735,36.667470932006836
765,"Никитское","Московская обл, Истринский р-н, Никитское д",56.084199,36.706196
766,"Николин ручей","",55.75358828417407,36.96144104003906
767,"Николино","Московская обл, Одинцовский р-н, Дарьино д",55.684919,37.111471
768,"Николино","",55.5898903225584,37.45462417602539
769,"Николино подворье","",55.58894234982808,37.46280722468873
770,"Николино-2","",55.548176850888446,37.44229369014283
771,"Николо-Пятницкое","",55.90997742105785,37.19941744758307
772,"Никологорские дачи","",55.74701872822312,37.074737548828125
773,"Никольская Слобода","",55.7855727754239,37.23312430232545
774,"Никольские озера","",55.355403958815465,37.23996162414551
775,"Никольский берег","",55.36086844194564,37.231807708740234
776,"Никольское","",55.44060297874105,35.50025939941406
777,"Никольское Озеро","",55.67197012273223,35.57527542114258
778,"Никольское-Лесное","Московская обл, Солнечногорский р-н, Никольское д",56.056639,37.186363
779,"Никольское-Таун","",55.586682864359766,37.45859384536743
780,"Никульское","",56.02318791592426,37.67967224121094
781,"Новахово","Московская обл, Красногорский р-н, Николо-Урюпино с",55.802508,37.208857
782,"Новая Владимировка","",55.3528666209545,38.3726692199707
783,"Новая Иберия","",54.88312451980704,36.525678634643555
784,"Новая Ильичевка","Москва, Троицкий",55.355771,37.14699
785,"Новая Москва","",55.45552962713715,37.401963053088366
786,"Новиково","",54.72723758917694,37.4607876571655
787,"Новиково","",55.96822650397679,35.65587043762207
788,"Новинки","Московская обл, Дмитровский р-н, Новинки д",56.232238,37.666917
789,"Ново Тишково","",56.112876491614415,37.75293903016359
790,"Ново-Спасское","",55.49616590537805,37.20871925354004
791,"Ново-Троицкое","",55.48245274334928,37.2736930847168
792,"Ново-Шарапово","Московская обл, Чеховский р-н, Шарапово п/о",55.186247,37.255291
793,"Новоархангельское","",55.8019783582346,37.25904517024537
794,"Новово","",57.20175947677694,37.760009765625
795,"Новогорск-7","",55.90940847264015,37.32908301204225
796,"Новое Аристово","",55.89129356168413,37.29360580444336
797,"Новое Бакеево","Московская обл, Солнечногорский р-н, Бакеево д",55.949793,37.098355
798,"Новое Бортнево","Московская обл, Пушкинский р-н, Бортнево д",56.155287,37.808644
799,"Новое Глаголево","",55.485612436407074,37.02433227764891
800,"Новое Лапино","",55.682228024336055,37.13947931560665
801,"Новое Рябцево","",54.86119659872399,36.193084716796875
802,"Новое Ступино","",55.017566151681116,38.087578771838366
803,"Новое Тяжино","Московская обл, Раменский р-н, Тяжино д",55.450399,38.186898
804,"Новолеоново","Московская обл, Истринский р-н, Кострово д",55.893778,36.69653
805,"Новорижские дачи","",55.894060985739344,36.57593250274658
806,"Новорижские ключи","",56.22812948785986,36.4600329414551
807,"Новорижские Озера","",56.07162421079445,35.76512802124023
808,"НовоРижские Cады","",56.14860953861173,35.533905029296875
809,"Новорижский","Московская обл, Истринский р-н, Покровское д",55.811472,37.010015
810,"Новорижский оазис","Московская обл, Волоколамский р-н, Тимошево д",55.989084,35.854539
811,"Новорижский парк","",55.803982452763975,36.457014083862305
812,"Новорижский Пляж","",55.95352489024806,35.48850059509277
813,"Новоселье","",56.19056484073982,37.990379333496094
814,"Новосельский залив","",56.559792301664274,36.41878567968752
815,"Новосельцово","",54.737951743372335,37.50783920288086
816,"НовоТроицкий","",55.50841618187183,37.242279052734375
817,"Новые Вешки","Московская обл, Мытищинский р-н, Вешки д",55.929722,37.617968
818,"Новые Корелы","Московская обл",55.815792,37.380031
819,"Новый","",56.38122067612584,37.914676666259766
820,"Новый быт","",55.02988451855663,37.582386340197786
821,"Новый Лужок","",54.73913135023599,37.3069790634155
822,"Новый мир","",56.24959446307946,38.47704626464838
823,"Новый Рижский Берег","",56.13170919966312,36.67159623945315
824,"Оазис","",55.42687047820887,37.30133056640625
825,"Образцово","",55.94215520299789,37.897572889257845
826,"Обушково","",55.79339125158866,37.022433042526245
827,"Огниково Парк","Московская обл, Истринский р-н, Огниково п",56.006094,36.916356
828,"Огниково-1","",56.0172142706664,36.940550565719604
829,"Одуванчиково","",54.69272593531329,37.50747955169675
830,"Озерный","Московская обл, Истринский р-н, Воронино д",55.796587,36.991015
831,"Озерный край. Лыщево","",56.088965392251986,36.73541522026062
832,"Озеро","",55.455266372730904,38.23945724464113
833,"Окская слобода","",54.869703903605625,37.44287454072264
834,"Окские леса","",54.81349679487082,37.964372634887695
835,"Окские сады","",54.83312727008725,37.939910888671875
836,"Окский берег","",54.826403547084865,37.809104919433594
837,"Октава","",55.320201351349695,37.65864610517576
838,"Октава","Московская обл, Клинский р-н, Ситники д",56.215593,36.627638
839,"Окунево","Московская обл, Каширский р-н, Кашира",54.834589,38.15154
840,"Олимп","Московская обл, Ступинский р-н, Константиновское с",55.160273,37.964502
841,"Олимп-2","Московская обл, Ступинский р-н",55.058214,38.097623
842,"Олимпийская деревня","",55.14171182015926,36.63979095800778
843,"Олимпийская деревня Новогорск","",55.90161413522327,37.36015372127076
844,"Олимпия","",56.2466883066629,37.54234313964844
845,"Ольгино","",56.68065667390069,36.724205017089844
846,"Ольховый берег","",55.641441460014995,38.03624135025029
847,"Ольшаны","Московская обл, Дмитровский р-н",56.389632,37.450243
848,"Онегин","",56.100058466878,38.068068594628926
849,"Онегино","Московская обл, Истринский р-н, Красный Поселок д",55.804698,36.981385
850,"Онтарио","Московская обл, Наро-Фоминский р-н, Жихарево д",55.484357,36.629884
851,"Опушка","",55.61251586737682,37.13861262927253
852,"Опушка Таун","",55.6475300897934,38.34399902320558
853,"Опушкино-2","",55.74122114241403,38.70964050292969
854,"Оранж Клаб","Московская обл, Истринский р-н, Веретенки д",55.921506,36.60907
855,"Орешники","",55.21595671212664,38.70564462751463
856,"Орленок","Московская обл, Раменский р-н, Дьяково д",55.438052,38.162607
857,"Орлиные холмы","Московская обл, Чеховский р-н, Красные Орлы д",55.079138,37.519602
858,"Орловъ","Московская обл, Ленинский р-н, Орлово д",55.554751,37.879809
859,"Остров Витенёво","",56.051021488898876,37.69380695297855
860,"Остров Эрин","",55.431977510023714,37.32193651044918
861,"Отдых","Московская обл, Можайский р-н, Ратчино д",55.598248,36.014394
862,"Павлино Forest ","",55.71246205316326,37.976861000061035
863,"Павлова пристань","",57.21403158163993,37.90763854980469
864,"Павлово","Московская обл, Истринский р-н, Веледниково д",55.799765,37.116016
865,"Павлово-2","",55.80527002718223,37.11901952380367
866,"Павловы Озера","",55.826291269596766,37.1284821022216
867,"Палитра","",56.110867992732196,36.91080093383789
868,"Палихово","",54.924774443251756,37.4948787689209
869,"Пальчино","",56.41782956164483,37.855358945764124
870,"Панорамный","",55.954630551835315,36.797891697900354
871,"Панорамы","Московская обл, Дмитровский р-н",56.389632,37.450243
872,"Папилльон","",55.71427429303588,38.18020829372563
873,"Папушево","",55.689160776412386,37.044457922937
874,"Папушево Парк","Московская обл, Одинцовский р-н, Папушево д",55.691059,37.033182
875,"Паритет","",55.30553664270756,37.61628228221434
876,"Парк Каменка","",55.49305416844212,37.140269525573785
877,"Парк Нудоль","",56.15688298560479,36.38309426577143
878,"Парк Природы","Московская обл, Можайский р-н, Андреевское д",55.388491,35.993975
879,"Парк Хаус","",56.19439185728485,37.55638886254883
880,"Парк-Авеню","",55.790263111863226,36.97871483179938
881,"Патриаршая Усадьба","",55.449122518615034,35.89078903198242
882,"Пахомово","",55.77213164731203,35.41339874267578
883,"Пахомовские дачи","Московская обл",55.815792,37.380031
884,"Пашково 2","",54.79593023758974,37.33643923254397
885,"Певчее","Москва, Троицкий, Первомайское",55.536573,37.158982
886,"Перелески","",55.835036020455675,36.49829864501953
887,"Пересветово","Московская обл, Дмитровский р-н, Пересветово с",56.400419,37.557906
888,"Пески","",56.16682777791191,37.24031735223389
889,"Пестово","Московская обл, Мытищинский р-н, Драчево д",56.113241,37.603639
890,"Пестово Лайф","",56.11155812007662,37.60555065944823
891,"Пестово-Семеновское","Московская обл, Пушкинский р-н, Семеновское д",56.10552,37.787507
892,"Пестовская гавань","",56.08676006653594,37.67563141658934
893,"Пестовская жемчужина","",56.0650793707181,37.76771621704097
894,"Пестовские дачи","",56.08972877158039,37.744047263537595
895,"Петрович на даче","",54.77538576184276,37.489283445739716
896,"Петрово Club","Московская обл, Серебряно-Прудский р-н, Петрово с",54.515011,38.423999
897,"Петрово-Дальнее","Московская обл, Красногорский р-н, Петрово-Дальнее с",55.751366,37.178691
898,"Петровская Слободка","",55.23231259940378,37.38685960615237
899,"Петровский Лес","",55.87847768848413,38.22496306385494
900,"Петровский лес-2","",55.878670274906504,38.22358977283932
901,"Петровский луг","",55.74614914526591,38.783111572265625
902,"Петровский парк","Московская обл, Истринский р-н, ОПХ Манихино п",55.853061,36.902972
903,"Петровский Парк 2","",55.83439318087209,36.89426835566405
904,"Петрухино","Московская обл, Серпуховский р-н, Всходы д",54.974835,37.546273
905,"Петрухино 2","",54.99233911334495,37.56734723803709
906,"Печки-Лавочки","",56.4703613843979,38.70981216430664
907,"Питеренка","",54.688419537165906,38.2518196105957
908,"Плешкино","",55.039264339355896,37.593119998327666
909,"По-рижская мечта","",55.83984205275217,36.95251745576172
910,"Подвиг Героя","",55.216220826293586,37.76127576828003
911,"Подколокольный","",56.11981642304108,36.650390625
912,"Подмосковная Бавария","",55.41598984710046,37.29870873485106
913,"Подмосковное","",56.39028367186205,38.62354360762936
914,"Подмосковные вечера","",55.54750556114619,37.218950844641085
915,"Подмосковные просторы","",55.856720235150235,36.95045471191406
916,"Подсолнухи","Московская обл, Клинский р-н, Сидорково д",56.279742,36.607354
917,"Подушкино-таун","",55.70696853347054,37.273850415869106
918,"Покровская слобода","",55.5738807887786,38.55669046215826
919,"Покровские дворики","",55.481274082878166,37.019437387438984
920,"Покровские земли","",54.972589047764274,37.57598876953125
921,"Покровский","Московская обл, Истринский р-н, Красный п",55.934482,36.718655
922,"Покровский парк","",55.835637238908575,37.005953550338745
923,"Покровское-Рубцово","",55.89680286826378,36.791205167770386
924,"Полесье","",55.88061796540061,38.25564307922366
925,"Полесье","Московская обл, Раменский р-н, Лысцево д",55.266738,38.430422
926,"Полесье","",55.886672726880256,38.29130172729492
927,"Поливаново","",55.451893938781666,37.39346880493167
928,"Полиносово","",56.41380641462631,38.42665672302246
929,"Полуостров","",56.137027156587784,36.85093178348393
930,"Полянка","",56.45719552015438,38.517508825683535
931,"Полянка де Люкс","",55.68990249573053,37.15411011114497
932,"Потапово Таун","",55.53518823335369,37.49093055725098
933,"Праймвиль","",55.54367221939954,37.367025280981466
934,"Премиум парк","Московская обл, Сергиево-Посадский р-н, Маньково д",56.372408,38.108322
935,"Премьера","",55.79993016009634,38.8861083984375
936,"Прибрежный","",56.78959742500751,37.21343994140625
937,"Прибрежный","",55.67647129726323,35.62960624694824
938,"Прибрежный","Московская обл, Лосино-Петровский",55.872183,38.200983
939,"Прибрежный квартал","",55.93843311463828,37.198076248168945
940,"Прибрежный парк","Московская обл, Коломенский р-н, Федосьино с",55.138058,38.503742
941,"Пригород","",56.052680792699476,37.507934734179685
942,"Прилесной","",56.07334906249727,37.59615219906004
943,"Прилесье","",55.04183428419593,37.36259734954831
944,"Прилесье","Московская обл, Ногинский р-н, Колонтаево д",55.788834,38.259041
945,"Приозерный","",56.48291051403135,37.82806478682858
946,"Приозерный","",55.56980452798329,38.296966552734375
947,"Приозерье","",55.87552623015298,36.52736163139343
948,"Приозерье","",56.05306637570883,37.33880806726074
949,"Приокская поляна","",54.82403020102307,37.364845275878906
950,"Приокская поляна 2","",54.82007431425968,37.36621856689453
951,"Прованс","",55.429097007430336,37.13100245804446
952,"Прованс","Московская обл, Шаховской р-н, Щемелинки д",55.962745,35.428836
953,"Прозорово","",55.76943127454442,37.19407339573968
954,"Прозоровское – Голицыно","",55.64032419237405,38.14467849731443
955,"Просторы","",56.22608755519799,37.468326576171876
956,"Пряники","",54.70575525361373,37.91549205780029
957,"Пушкин Лэнд","Московская обл, Пушкинский р-н, Березняки д",56.111112,38.04482
958,"Пушкино Life","Московская обл, Пушкинский р-н, Балабаново д",56.176359,37.733985
959,"Пушкинская дубрава","",56.097176496784705,37.85295828728022
960,"Пушкинский лес","Московская обл, Пушкинский р-н, Березняки д",56.111112,38.04482
961,"Пушкинское озеро","",56.04884179327896,37.98694610595703
962,"Пятницкий парк","",55.9067404827556,37.253522872924805
963,"Радонеж","",56.215411262514266,37.98657472077639
964,"Радонежье","",56.342946732129974,38.362112045288086
965,"Радости Парк","",56.132445958680265,36.35358810424805
966,"Радуга","",54.66191804128252,37.45393753051758
967,"Радуга","",56.23719699951864,38.18873405456543
968,"Радужный","",55.525692607703924,38.440122943115284
969,"Раздолье","",56.670206474950916,36.67106675947264
970,"Раздолье","",55.33924864527258,38.387696614074684
971,"Раздолье","Московская обл, Клинский р-н, Захарово(Петровская с/а) д",56.197273,36.451775
972,"Раздолье","",55.51269315839726,36.209564208984375
973,"Рассвет","",55.46772398872113,38.39549743629152
974,"Рассказовка","",55.63391469925365,37.314750955944874
975,"Ревякино","Московская обл, Дмитровский р-н, Ревякино д",56.342086,37.446722
976,"Резиденс","",55.90900166528983,37.27008819580078
977,"Резиденции Бенилюкс ","",55.781844332583965,37.04032429200436
978,"Резиденции БЕРЁЗКИ","",55.69800200857496,37.159624099731445
979,"Резиденции Эрмитаж","",55.710380760821266,37.059485113946494
980,"Резиденция Лесной городок","",55.643595969174335,37.19249725341797
981,"Резиденция Рублево","",55.80294317732238,37.380581425128184
982,"Река-Река","",55.728270090392584,36.892433166503906
983,"Республика Сантория","Московская обл, Чеховский р-н, Ходаево д",55.20449,37.39382
984,"Речная слобода 1","",55.055513280913694,37.15507507324219
985,"Речной","Московская обл, Чеховский р-н, Крюково д",55.099011,37.546399
986,"Ривер Клаб","",55.877741084697185,36.88115572929382
987,"Ривер Лэнд","Московская обл, Мытищинский р-н, Мытищи",55.910483,37.736402
988,"Риверсайд","Московская обл, Истринский р-н, Славково д",55.798991,36.960554
989,"Рига парк","",55.831661833127946,37.02770233154297
990,"Рига! Рига!","",55.774352396252965,37.1077823638916
991,"Рижская ривьера","",56.03512143904816,35.714954623144536
992,"Рижская Роза","",55.94684486159704,36.59743309020996
993,"Рижские дачи","Московская обл, Клинский р-н, Кореньки д",56.113697,36.624395
994,"Рижский","",55.89938602488913,36.588777524585
995,"Рижский квартал","Московская обл, Красногорский р-н, Опалиха мкр",55.827732,37.252731
996,"Ричмонд","Московская обл, Одинцовский р-н, Таганьково д",55.685148,37.070238
997,"Родники","",55.69227559126856,37.29997246854248
998,"Родники","",54.82126112097624,37.46681213378906
999,"Родной берег","",55.677826388164895,35.65381050109863
1000,"Родные просторы","",56.13732444141735,37.72533416748047
1001,"Рождествено","Московская обл, Истринский р-н, Рождествено с",55.853036,37.05326
1002,"Рождествено","",54.72994849713818,37.52696595764155
1003,"Рождествено-1","",56.04260970914898,35.60617446899414
1004,"Рождествено-2","Московская обл, Шаховской р-н, Рождествено д",56.043658,35.588036
1005,"Романово","",57.07508187682977,37.90008544921875
1006,"Романовские дачи","",54.8157223912467,37.40020751953125
1007,"Романовские дворики","",54.81516877409773,37.389376524353
1008,"Романовские дворики 2","",54.77851410375888,37.393341064453125
1009,"Романовский парк","",54.7905030964933,37.399100889599595
1010,"Романтика","",55.40575759496125,37.27132874522704
1011,"Ромашки","",55.74218746653594,38.53952407836914
1012,"Ромашкино","",55.45838114567645,38.29181396461183
1013,"Ромашкино 2","Московская обл, Чеховский р-н, Горелово д",55.10358,37.272107
1014,"Ромашково","Московская обл, Клинский р-н, Соколово д",56.362292,36.886604
1015,"Ромашково ХХI","",55.72546460237288,37.326590216485556
1016,"Росинка","Московская обл, Красногорский р-н, Ангелово д",55.861747,37.315604
1017,"РОЩА","",55.80369301727429,36.987876892089844
1018,"Рублевский","",55.71021695220172,37.124369777587845
1019,"Руза Фэмили парк","",55.95709268234873,36.392649712048296
1020,"Рузская усадьба","Московская обл, Волоколамский р-н, Бражниково д",55.838642,35.871831
1021,"Рузские берега","Московская обл, Шаховской р-н, Щемелинки д",55.962745,35.428836
1022,"Рузские дачи","Московская обл, Волоколамский р-н, Бражниково д",55.838642,35.871831
1023,"Рузские просторы","",55.778129768154,36.037139000378374
1024,"Рузские Сады","",55.88696154517466,35.7359504699707
1025,"Рузское","",55.833107949259045,35.881004333496094
1026,"Рузское-2","",55.748564605626555,35.67106246948242
1027,"Русалкино","",56.24833694647895,36.44870701398315
1028,"Русская усадьба","",55.44429594110918,37.24794120559079
1029,"Русские горки","",56.243540696663544,37.626543045043945
1030,"Русские Узоры","",55.1928691666189,36.76534309082035
1031,"Русский лес","Московская обл, Истринский р-н, Буньково д",55.881909,36.82445
1032,"Русское поле","",56.14252801065162,37.75106506347652
1033,"Ручейный","Московская обл, Воскресенский р-н, Барановское с",55.403727,38.757481
1034,"Ручьи","",55.969466948729824,36.081794985693364
1035,"Рыбацкое","",54.59076494622518,38.201866149902344
1036,"Рыболово","",55.44284670150105,38.476267496972696
1037,"Рыболово","",55.39870878930782,38.37043762207031
1038,"Рыжиково","Московская обл, Серпуховский р-н, Рыжиково д",55.040564,37.443892
1039,"Рябинка 3","",55.60668888907112,38.50173801055905
1040,"Сабурово Парк","Московская обл, Красногорский р-н, Сабурово д",55.882151,37.264058
1041,"Саввинские берега","Московская обл, Егорьевский р-н, Саввино с",55.429854,39.201904
1042,"Саврасово парк","",55.497332762586346,37.91862487792969
1043,"Садко","",55.64605588129188,38.39567889422608
1044,"Садко","",56.00414027690233,36.903076171875
1045,"Сальвадор","",56.07857755852186,36.4950555857605
1046,"Сальково","",56.60297236449674,38.29404830932617
1047,"Сатино озеро","",55.378556161882194,37.36823159251708
1048,"Сверчково","",56.13691110217727,36.84391938570559
1049,"Светлая поляна","",54.747793215163334,37.51126756513668
1050,"Светлогорье","",55.85895896438714,36.811976194381714
1051,"Светлогорье VIP","",55.857337509805426,36.82286520018306
1052,"Светлый","",55.50892641654588,37.26147877987057
1053,"Светлый","",55.03199725417779,37.268355253601044
1054,"Светлый","",56.34027023906823,38.33429418746334
1055,"Святая гора","Московская обл, Чеховский р-н, Мальцы д",55.079009,37.64348
1056,"Святой источник","",55.08009702448094,37.67507905805667
1057,"Святой источник-2","",55.08055614499853,37.671054263464384
1058,"Северка","",55.18185720568122,38.74534606933594
1059,"Селинские Дачи","Московская обл, Клинский р-н, Матвеево д",56.288061,36.589334
1060,"Семеновские дачи","",56.34549159632648,37.144174575805664
1061,"Семибратское","Московская обл, Коломна",55.103152,38.752917
1062,"Семиречье","",56.96818761462323,37.481231689453125
1063,"Сенатор Клуб","",55.52160684948524,37.38703840410153
1064,"Сергеевка","",56.25312253183171,36.97012472307131
1065,"Сергейково","",56.266553484821564,37.730873701733344
1066,"Серебряная подкова","",55.455410000000235,37.6733325025391
1067,"Серебряная Роща","",55.87437060371183,37.14122271537781
1068,"Серебряный век","",55.47724670713594,37.00008510815428
1069,"Серебряный родник","",56.5456727154539,37.92749548308109
1070,"Середниково","Московская обл, Солнечногорский р-н, Благовещенка д",55.911007,37.229671
1071,"Середниково Парк","Московская обл, Солнечногорский р-н",56.121496,37.057958
1072,"Сеченка парк","Московская обл, Раменский р-н, Шевлягино д",55.590719,38.579973
1073,"Сивково","",55.450485474301175,35.885467529296875
1074,"Сиеста","Московская обл, Домодедовский р-н, Зиновкино д",55.336861,37.754961
1075,"Симфония","",54.992231058371964,37.5735691818237
1076,"Синергия","Москва, Новомосковский, Филимонковское",55.570014,37.322368
1077,"Синяя птица","",55.751849391735284,38.57746124267578
1078,"Скандия","",56.1118033912867,36.90934082369381
1079,"Скипер","",55.818281424839036,37.0859477519989
1080,"Скнятинский плёс","",57.104927384135586,37.738037109375
1081,"Сколково town","",55.702064902708095,37.34250783920288
1082,"Скриповские дачи-2","",54.758807557072544,37.37342834472656
1083,"Славич","",55.965013007749974,37.2675278995971
1084,"Слобода-2","",55.21061391722386,36.41057966928713
1085,"Слобода-3","",55.19396006297072,36.3784789917969
1086,"Смородинка","",55.961569209833456,37.54851616695555
1087,"Смородинка","",55.641330208246195,38.39618408179933
1088,"Соколиная гора","Московская обл, Чеховский р-н, Васькино п/о",55.138042,37.590551
1089,"Соколиные холмы","",56.07771414170884,36.982897723718224
1090,"Соколово","",56.04033453068061,36.925949061914025
1091,"Соколово -Парк","",56.032854259769856,36.91981216768795
1092,"Сокольники","Московская обл, Истринский р-н, Сокольники д",55.952792,36.900187
1093,"Солнечная горка","",55.167303970992556,36.95601760864258
1094,"Солнечная долина","",55.36287959438651,38.43652450538332
1095,"Солнечная долина","Московская обл, Волоколамский р-н, Михайловское д",56.066103,35.851449
1096,"Солнечная опушка","",54.98937503713515,37.32732093658444
1097,"Солнечная опушка","",55.39357288698837,37.38333779368895
1098,"Солнечная Слобода","",55.16828011785283,36.46756836065674
1099,"Солнечный","Московская обл, Шаховской р-н, Стариково д",56.028671,35.584137
1100,"Солнечный город","",55.42787542158444,37.11915093455809
1101,"Солнечный город-2","",55.41745335490328,37.09938889191892
1102,"Солнечный дом-2","",55.374000825075406,38.392407531506365
1103,"Солнечный луг","",55.00056130421191,36.29290580749512
1104,"Солнечный остров","",55.58552471958288,37.84034729003906
1105,"Соловьи","Московская обл, Истринский р-н, Дедово-Талызино д",55.91856,37.093953
1106,"Соловьиная Роща","",55.589609,37.433089
1107,"Соловьиные Трели","",55.18763961840314,36.95526123046875
1108,"Солоновка","",57.25973712933438,37.794342041015625
1109,"Сорочаны","Московская обл, Дмитровский р-н, Курово д",56.27419,37.557035
1110,"Сосенки","",54.809985049007224,37.286224365234375
1111,"Соснинские дачи","",56.40966285984974,37.88093649093014
1112,"Сосновка","",54.57487622003531,38.14025822247925
1113,"Сосновые берега","Московская обл",55.815792,37.380031
1114,"Сосновый аромат","Московская обл, Чеховский р-н, Васькино п",55.138042,37.590551
1115,"Сосновый берег","Московская обл, Чеховский р-н, Голыгино д",55.046785,37.603963
1116,"Сосновый берег-2","Московская обл, Чеховский р-н, Еськино д",55.051953,37.575612
1117,"Сосновый бор","",55.95154556989696,37.86384658813472
1118,"Сосновый бор","",55.34317790644023,37.39878249663093
1119,"Сосновый бор","Московская обл, Раменский р-н, Островцы д",55.591345,37.992637
1120,"Сосновый бор","",56.4393424836956,39.6525764465332
1121,"Сосновый край","",55.65860600798958,38.41685556489256
1122,"Сосновый Остров","",55.74208875331827,37.04283396038204
1123,"Сосны","",55.488416776237806,37.317076502185046
1124,"Софринские пруды","Московская обл, Пушкинский р-н, Софрино п",56.135072,37.925542
1125,"Софьино","",55.48435504924453,38.141949073791466
1126,"Спасское-Семеновское","",56.14941056948165,37.45984211376958
1127,"Спокойное","",55.763645748304754,36.14734560438228
1128,"Спортвилль","Московская обл, Дмитровский р-н, Нерощино д",56.245985,37.624085
1129,"Старая Искань","",54.8040888840707,37.29461944427487
1130,"Старая мельница-2","",55.484846785620626,38.363911742932146
1131,"Старая Пахра","",55.43942818992383,37.3383556350708
1132,"Старая Рига","",55.82658627103397,36.987622207348636
1133,"Стародубский","",56.07107733165996,37.254295349121094
1134,"Староникольское","",55.51227677861622,37.199927503222625
1135,"Старые Кузьменки","",55.0361291009721,37.40860259857175
1136,"Старые кузьменки-2","",55.04281785435857,37.39006316986081
1137,"Старый свет","Московская обл, Истринский р-н, Борки д",55.837171,36.944258
1138,"Степановское","Московская обл, Раменский р-н, Никитское с",55.299578,38.463956
1139,"Степановское 2","",55.30013129739355,38.47884178161621
1140,"Степаньково","",56.097226007742606,36.490745544433594
1141,"Стольное","Москва, Новомосковский, Внуковское",55.6335,37.290298
1142,"Стольный","",55.392792937784115,37.23364907298583
1143,"Субботино","",56.112569095182224,36.832350696130334
1144,"Субботинские дачи","",55.78390982776992,38.556861877441406
1145,"Сурмино-3","",56.2008858810468,37.662132270751954
1146,"Суханово Парк","",55.522994875454714,37.6516056060791
1147,"Сухой ручей","",55.924970519150556,37.00040817260742
1148,"Счастливая дача","",56.30587237022282,37.445526123046875
1149,"Талицкие берега","Московская обл, Пушкинский р-н, Данилово д",56.173623,37.931686
1150,"Тарасково","",54.80900707609118,38.03473768388676
1151,"Таруса","",54.708755390956064,37.1612548828125
1152,"Тарусская поляна","",54.71851327866112,37.30285919036862
1153,"Тверитино","",54.99557923823636,37.315047148132294
1154,"Тверь Marina ","",56.821525788037356,36.01030523145755
1155,"Твой дом","",54.76924658823247,37.490313414001434
1156,"Терентьево","",55.00811736247311,36.42641544342041
1157,"Тиликтинские дачи","",56.09342316446757,36.598224073309325
1158,"Тимашево","",55.16267772975957,36.4850200622559
1159,"Тироль","Московская обл, Солнечногорский р-н, Холмы д",56.098135,37.270895
1160,"Тихая заводь","Московская обл, Истринский р-н, Карцево д",56.045026,36.708774
1161,"Тихие берега","",55.35857540248315,38.44571113586426
1162,"Тихие зори","",55.96111661686898,38.256797790527344
1163,"Тишина","",55.657349833790654,35.644240379333496
1164,"Тишково Озеро","",56.090810210476505,37.73297309875488
1165,"Тишково Парк","",56.08771757355976,37.74323187199707
1166,"Товарищество 799","",55.859217725333174,37.00931341247565
1167,"Торбеевка","",56.331135229717795,38.279534208215296
1168,"Третьяково","",56.2112229962064,37.84967422463524
1169,"Три жеребенка","",55.457250878695355,38.41146469116211
1170,"Три озера","",56.062747017953896,37.44051743310547
1171,"Троица","Московская обл, Истринский р-н, Троица д",55.907975,36.586118
1172,"Троицкий парк","",55.931440334511024,36.555573291540554
1173,"Трувиль","Московская обл, Одинцовский р-н, Сельская Новь д",55.625943,37.118073
1174,"Турар","",55.30728511373017,37.66721580969238
1175,"Тургенево","Московская обл, Сергиево-Посадский р-н, Сергиев Посад",56.315311,38.135963
1176,"Тургеневские дачи","",56.51248943058822,38.41641538696285
1177,"Тюльпаново","Московская обл, Истринский р-н, Давыдково д",55.992558,36.337545
1178,"У Оки","",54.69471015922244,37.2520474227905
1179,"У Оки","",54.58161334478378,37.14202880859375
1180,"У семи прудов","",54.635936051495875,37.50610626068112
1181,"Уварово Лесное","",55.25642507112362,37.820091247558594
1182,"Удачный","",56.35536025795627,38.2489013671875
1183,"Улыбка-1","",54.5925552364866,37.50852584838867
1184,"Улыбка-2","",54.59713006520703,37.52655029296875
1185,"Улыбка-3","",54.593947630064314,37.527923583984375
1186,"Ульянкины горки","",55.250163418690384,37.882232666015625
1187,"Усадьба Аносино","",55.834843217637676,36.98628902435303
1188,"Усадьба Аносино 2","",55.8366266072301,36.98229789733887
1189,"Усадьба Бакеево","",55.9511535061774,37.08688639561774
1190,"Усадьба Бергов","",55.53096245509093,37.160393678039554
1191,"Усадьба Жодочи","",55.46795651858549,37.076451264709476
1192,"Усадьба Комлево","",55.19454796464668,36.50653837900393
1193,"Усадьба Коняшино","",55.6218899096439,38.411550521850586
1194,"Усадьба Павлино","",55.72246971901109,37.95149803161621
1195,"Усадьба Романцево","",55.405580584983845,37.270388849304254
1196,"Усадьба Спасово","",54.123620500646204,35.79517364501953
1197,"Усадьба Тишнево","",55.18285378552394,36.30345798950202
1198,"Усадьбы Юрково","",55.143826049376045,36.23805500488288
1199,"Усово Усадьбы","",55.73079954299966,37.21245786616214
1200,"Усово Усадьбы-2","",55.72963961280593,37.20593473383792
1201,"Успенка 21","",55.69259033962946,37.0536717974976
1202,"Успенские Усадьбы","",55.701288966614385,37.05502191814571
1203,"Успенские хутора","",55.163094685463854,36.92818207128903
1204,"Успенский","",56.40268274216948,38.56017686767575
1205,"Успенский лес","Московская обл, Одинцовский р-н, Назарьево п",55.673808,37.03912
1206,"Успенское","",55.317190518296655,37.88794987412109
1207,"Устье","",57.02242066869632,38.03672790527344
1208,"Участки в деревне Кошкино","",54.75103122924569,37.31188774108887
1209,"Ушаковка","",54.61542424149449,37.493247985839844
1210,"Ушаковские дачи","",56.025465008530176,36.722025632858276
1211,"Уют","",55.84999730321268,37.15570502131959
1212,"Уютный","Московская обл, Раменский р-н, Старниково д",55.365458,38.392729
1213,"Фаворит","Москва, Троицкий, Новофёдоровское",55.42564,36.931879
1214,"Фантазия","",56.08659626958982,37.135162353515625
1215,"Федорцово","",56.133019929952354,38.30409049987793
1216,"Федоскино парк","",56.05444980829429,37.59444236755371
1217,"Феникс","Московская обл, Раменский р-н, Сидорово д",55.569082,38.615053
1218,"Фестиваль","",55.55252446700831,37.442264556884766
1219,"Фиалкино","",55.180803108606014,38.20336437059325
1220,"Финская деревня","",55.09515856679403,37.38795339490969
1221,"Финский пригород","",55.49485314969389,37.1422004699707
1222,"Фламандия эко вилладж","",55.33119503697541,37.799320220947266
1223,"Флоранс","",55.74981850444545,37.29260126384884
1224,"Фоминское","",55.5266990035206,37.30843456242678
1225,"Фонтенбло","Московская обл, Пушкинский р-н, Жуковка д",56.050652,37.992538
1226,"Форест Клаб","",55.3294459301689,37.79212217539066
1227,"Форест Лейк Клаб","",55.45671076127182,36.681978841650334
1228,"Фортуна","",56.04675273838422,37.62722290828856
1229,"Фортуна-2","",56.04680067618696,37.629797828942856
1230,"Фрегат","",56.007883375641114,37.55006790161133
1231,"Фрунзевец","",55.52920430373591,37.03364925384517
1232,"Холмец","",55.85681658243853,35.511932373046875
1233,"Хорошие соседи","",54.76805825348271,37.366717222595184
1234,"Хорошилово","Московская обл, Можайский р-н, Бабаево д",55.346532,35.925551
1235,"Хотьковский","",56.22237299376844,38.00026103139646
1236,"Храброво","Московская обл, Дмитровский р-н, Храброво с",56.237622,37.24947
1237,"Хрустали","",54.929311878347825,36.48653984069824
1238,"Хрустали мини","",54.94703749225941,36.46461009979248
1239,"Хуторок","Московская обл, Истринский р-н, Новопетровское с/п",55.913777,36.716562
1240,"Царские берега","Московская обл, Можайский р-н, Власово д",55.398896,36.014699
1241,"Цветочный","Москва, Троицкий, Краснопахорское",55.421496,37.270661
1242,"Целеево","",56.240508865838216,37.48303408540039
1243,"Цернское","Московская обл, Пушкинский р-н, Цернское д",56.127788,37.866954
1244,"Цибино","",55.4755627832185,38.398567254980435
1245,"Чайка","",55.92958679313614,36.595115661621094
1246,"Чаново","",55.968995062178955,36.650047302246094
1247,"Часовня","",55.91681856772987,36.56271457672119
1248,"Черничные поля","",55.581486299752015,37.14071173979494
1249,"Черноморский","",55.193143563975916,37.79497146693757
1250,"Четыре сезона","Московская обл, Одинцовский р-н",55.641737,36.900798
1251,"Чеховская жемчужина","Московская обл, Чеховский р-н, Костомарово д",55.196069,37.419323
1252,"Чеховские дворики","",55.169679584952355,37.348674197546416
1253,"Чеховские угодья","",55.094507074510794,37.459567447058134
1254,"Чеховское подворье","",55.18869559512301,37.436049838415556
1255,"Чигасово","",55.70234742356682,37.01230374223633
1256,"Чигасово-2","",55.69606506430031,37.00867334636837
1257,"Чистые ключи","",55.52391852443825,37.129270439147945
1258,"Чистые пруды","",55.58905381481279,37.10337539030763
1259,"Чистые пруды","",55.31664304437719,38.50502014160156
1260,"Чистые пруды","Московская обл, Клинский р-н, Губино д",56.395811,36.801902
1261,"Чистые пруды 2","",56.01576152531489,37.90428349838862
1262,"Чистые пруды 3","",56.00893905587782,37.88060188293457
1263,"Чистые пруды-2","",55.814780231237656,37.139588583886734
1264,"Чудо-град","",55.09310479108526,37.57478713989258
1265,"Чулково Club","Московская обл, Раменский р-н, Каменное Тяжино д",55.542554,38.015643
1266,"Шале Рублево","",55.73576096158144,37.24691390991211
1267,"Шараповские просторы","",55.18320736910534,37.28395785843509
1268,"Шарль Леруа","",55.42014857739664,37.09980010986328
1269,"Шато Лужки","",55.66655610922589,38.18491029584959
1270,"Шато Соверен","",55.77584891656498,37.098684310913086
1271,"Шелестово","",55.98825251055524,36.7728291368652
1272,"Шелестово","",55.452219933447644,37.25347596202391
1273,"Шелково","",56.19123346063798,38.10779571533203
1274,"Шервуд","",55.77847757818682,37.010412184838856
1275,"Шервудский лес","Московская обл",55.815792,37.380031
1276,"Шиколово","",55.504333179846746,36.13557815551758
1277,"Ширяевские усадьбы","Москва, Троицкий, Первомайское",55.536573,37.158982
1278,"Шмелево Парк","",55.48284183501389,37.99055099487305
1279,"Шоколадный","",56.032512574691914,37.61520661190184
1280,"Щекутово","",55.75305696415313,38.747663497924805
1281,"Щелкуново 1","",56.118620229333956,36.40551567077637
1282,"Эдельвейс","",56.10139377169735,37.38119478071292
1283,"Эдем","Московская обл, Чеховский р-н, Прохорово д",55.298927,37.642231
1284,"ЭКО-Парк Воскресенские берега","",55.92891362076248,38.29876899719238
1285,"Эко.дачи","",54.79556743605891,38.81111088361206
1286,"ЭкоГрад-Обухово","",55.840360890114596,38.255653468896526
1287,"ЭкоДеревня","",55.42287644320583,37.1173095703125
1288,"Экодолье Белкино","",55.13586199506129,36.56231875307617
1289,"Экодолье Шолохово","",56.04865005185528,37.52500534057617
1290,"Экопарк","Московская обл, Люберецкий р-н, Томилино",55.663126,37.949931
1291,"Экопарк Ушаково","Московская обл, Истринский р-н, Леоново (Костровский с/о) д",55.900461,36.735211
1292,"Экопарк Honka","",55.834554011618344,35.80495834350586
1293,"Эра","",57.20547872728542,37.758636474609375
1294,"Эрфолг","",55.03219401844873,37.31367385711667
1295,"Эсквайр парк","",55.943262803439566,36.847681760787964
1296,"Юдинские дачи","",55.664612249397486,37.1872615814209
1297,"Южная долина","Московская обл, Ленинский р-н, Горки Ленинские п",55.506948,37.777041
1298,"Южное полесье","",55.351169658971195,38.35532867408449
1299,"Южные горки","",55.523017031895854,37.8045850262024
1300,"Южные дачи","",55.01988517035589,37.44301680991214
1301,"Южные Озера","",55.25529305485272,37.22554445112303
1302,"Южные озера 2","",55.24233496573924,37.25738525390625
1303,"Южные холмы","",54.82087682566676,38.02048978959965
1304,"Южный","",55.02530669406799,37.58137977447507
1305,"Южный залив","",55.26543305035231,37.85048704355472
1306,"Южный сад","",55.362099039780745,38.369404906994646
1307,"Юрьевские пруды","",56.21233675594484,36.446027755737305
1308,"Яблоневый сад 1","",55.31644767928034,38.508453369140625
1309,"Яблоневый сад 3","",55.30990239223711,38.495235443115234
1310,"Ягодный","",55.72865675118282,35.498199462890625
1311,"Якиманский залив","",56.13648966570135,36.8387021670776
1312,"Якушево","Московская обл, Черноголовка",56.010005,38.379245
1313,"Янтарный берег","",55.130955407943304,37.34407424926758
1314,"Янтарный лес","Московская обл, Одинцовский р-н, Сивково д",55.585362,36.932481
1315,"Янтарный склон","",56.303307524153254,37.45974350732422
1316,"Яр","Московская обл, Чеховский р-н, Прохорово д",55.298927,37.642231
1317,"Ясновидово парк","",55.985515371311344,35.850276947021484
1318,"Ясногорье","Московская обл",55.815792,37.380031
1319,"Ясные зори","",55.17455448565324,38.1884765625
1320,"Ясные зори-2","",55.179259747193996,38.19019317626953
1321,"Яхонтовый лес","",55.898535646727616,38.515119640161174
1322,"Яхонты","",55.90084542663563,38.51271638088383
1323,"Яхонты Club","",55.90736592941278,38.507423400878906
1324,"Яхрома клаб","",56.28152517028492,37.55500720286864
1325,"Яхрома Парк","",56.26075400693286,37.680015563964844
1326,"Яхрома Ривер","",56.25846570268269,37.67864227294922
1327,"Яхромские горки-2","",56.308830877475636,37.43502426904297
1328,"Яхромские зори","",56.30673590642681,37.45716858666992
1329,"Art Village","",55.92458580482951,37.308712005615234
1330,"ArtEco","Московская обл, Истринский р-н, Борки д",55.837171,36.944258
1331,"AVIATOROV","",55.067851120756664,36.265869140625
1332,"Bavaria-Land","",55.40952189146599,37.265121871167025
1333,"Berestovo Club","",55.807044228003946,36.96681475639343
1334,"Bereza Club","",55.56384674149019,37.47363835396732
1335,"Bosco Villaggio","",55.82062137473585,38.09535026550293
1336,"Bosconi","",55.80874731765825,37.10168025711664
1337,"Crystal Istra","",55.770602760959264,37.12301700438229
1338,"Dacha 9-18","",55.86490890178817,36.73853874206543
1339,"Eastландия","",55.897701295572965,35.81820642152104
1340,"ETUDE family club","",55.87800195157826,37.316065597534134
1341,"Evergreen","",55.720516062421666,37.14329889450687
1342,"FoRest","",55.571551526757744,37.50354766845703
1343,"Forest Park","",56.142774266249646,37.497985933312975
1344,"Forest Village","",56.29134692478438,37.195587158203125
1345,"ForRestovo","",55.30357836772138,37.628310580603056
1346,"FORTOPS","",55.42690132874602,37.24412041697997
1347,"FreeDom","",55.82873906408666,37.204712618768326
1348,"FreeSki","",55.43541686641943,37.255886335998525
1349,"Futuro Park","",55.805670783568644,37.00392723083496
1350,"Gentle Park","",55.43718746839643,37.29669303664548
1351,"Grand Marina Club","",55.568542758316894,35.91207504272461
1352,"Green Village","",56.26500940484626,37.7014412767212
1353,"Green Wood","",55.04065396812049,37.280028227233856
1354,"HONKA CLUB","",56.16305229912943,37.54454422753906
1355,"Istra Village","",56.10970008649163,36.913467119580105
1356,"KASKAD Park","",55.383937806734345,37.62448310852051
1357,"La promenade","",55.561797335107805,37.26761898944096
1358,"La Promenade-2","",55.5651262309132,37.27918567298582
1359,"Lake House","",55.04947814562086,37.60211187613527
1360,"Lake Side","",56.09562088303979,36.731810331344604
1361,"LE VITAN","",55.433596148194724,37.35053894322505
1362,"M.o.n.a.k.o.v.o","",55.37283184058993,36.245860956555134
1363,"Madison Park","",55.77397406422708,36.94750070805662
1364,"Morozoff ","",56.17432984295984,37.60033417504883
1365,"Norrland Novaya Riga","",55.93048205799958,35.643081810546846
1366,"OZEROVO","",56.1005043881422,39.02117737941899
1367,"Paradise Marina Village","",56.7820749480284,36.9140625
1368,"POINT Novogorsk","",55.90348078018073,37.34055519104004
1369,"RADOSTЬ","",55.91092597210804,36.583614349365234
1370,"RAVISSANT","",55.495940556547716,37.25568114649661
1371,"Rubin Estate","",55.7684864481524,37.20112323760986
1372,"Ruza Resort","",55.65129679141514,36.28131866455078
1373,"Sanatel","",56.659911722645425,37.4492029530395
1374,"Smart Village","",56.274671576724415,37.76043891906738
1375,"SmartVille Дмитровка","",56.24958716208876,37.55361352703858
1376,"Smartville Aqua","",56.05864202690907,36.800732374191284
1377,"Sosnovka Park","",55.02974653588397,37.34423663405755
1378,"Sunny Dale","",55.70651217077939,36.812979376641806
1379,"Veretenki Family Club","",55.92150795277898,36.610050201416016
1380,"Victoria City","",55.78479063466307,38.43416690826416
1381,"Villa Links","",56.37257079822431,37.17644691467285
1382,"Villa Verde","",56.03723179830428,38.0669796641846
1383,"VillaNova","",55.815075857776264,37.132415771484375
1384,"Vita Verde","",56.04428218091831,37.59428801744389
1385,"Vitro Club","",55.72268312218741,37.350743857550015
1386,"Vitro Country","",55.655850593134495,36.63124192877194
1387,"Vitro Country 2","",55.65725299247944,36.635284423828125
1388,"Vitro Village","",55.3348351593993,37.3235987350464
1389,"Woodland","",55.5526215672324,37.82910346984863
1390,"Wright Village","",55.5151230516659,37.10512161254883
1391,"X-Park","",55.719549201721,37.16849020157474
1392,"Zorino Active Resort","",56.01107304250686,36.73747515678406
1393,"Zorino Sport Village","",56.01088111339342,36.734041929244995
1394,"Михайлово д. Хрипковские Выселки","Московская обл",55.815792,37.380031
1395,"Пушкино Запад","Московская обл, Пушкинский р-н, Пушкино",56.011182,37.847047
1396,"Химки-Вашутино","Московская обл, Химки",55.88874,37.43039
1397,"Миловидово","Московская обл, Пушкинский р-н, Грибово д",56.010563,37.974042
1398,"Вудлэнд таун","Московская обл, Ленинский р-н, Мисайлово д",55.563992,37.82555
1399,"Купавна Life 2","Московская обл, Балашиха го",55.791202,37.956857
1400,"Романово Лайф","Московская обл, Балашиха го, Новый Милет с",55.710362,38.051099
1401,"Есипово Форест","Московская обл, Солнечногорский р-н, Овсянниково д",56.113853,37.132814
1402,"Ильинские Пруды","Московская обл, Волоколамский р-н",56.007831,35.970359
1403,"Futuro Park (Футуро Парк)","Московская обл, Истринский р-н, Покровское д",55.811472,37.010015
1404,"Ренессанс парк","Московская обл, Истринский р-н, Чесноково д",55.778659,37.048247
1405,"Дарьино Южное","Московская обл, Пушкинский р-н, Дарьино д",56.097041,37.836824
1406,"PARK AVENUE","Московская обл, Истринский р-н, Истра",55.914287,36.860284
1407,"Park Fonte","Московская обл, Истринский р-н, Истра",55.914287,36.860284
1408,"Ульянки","Московская обл, Дмитровский р-н, Ульянки д",56.257858,37.589868
1409,"По-Рижская мечта","Московская обл, Истринский р-н, Борисково д",55.839229,36.958964
1410,"Империалъ","Московская обл, Наро-Фоминский р-н, Горчаково д",55.526098,37.202919
1411,"Калужские усадьбы","Москва, Новомосковский, Воскресенское",55.529619,37.445752
1412,"Федоскино Парк","Московская обл, Мытищинский р-н, Мытищи",55.910483,37.736402
1413,"Солнечный Остров","Московская обл, Ленинский р-н, Мисайлово д",55.563992,37.82555
1414,"Петрово Парк","Московская обл, Ступинский р-н, Петрово д",54.996645,38.131543
1415,"Полтево Форест","Московская обл, Балашиха го, Полтево д",55.70777,38.137203
1416,"Алешинские просторы","Московская обл, Пушкинский р-н, Алешино д",56.147069,37.750972
1417,"Kaskad Park","Московская обл, Подольск",55.431177,37.544737
1418,"Американ Дрим (American Dream)","Московская обл, Дмитровский р-н, Глебездово д",56.28326,37.686779
1419,"Медная подкова","Московская обл, Домодедово",55.437168,37.767995
1420,"Купавна life","Московская обл, Балашиха го",55.791202,37.956857
1421,"Дача 9/18","Московская обл, Истринский р-н, Котово д",55.8724,36.75678
1422,"Серебряная лагуна","Московская обл, Раменский р-н",55.478113,38.208511
1423,"Новорижские озера","Московская обл, Волоколамский р-н, Львово д",56.10301,35.728254
1424,"Нескучный сад","Московская обл, Истринский р-н, Еремеево д",55.940986,37.025807
1425,"Пятница Парк","Московская обл, Солнечногорский р-н",56.121496,37.057958
1426,"Гринвуд","Московская обл, Ступинский р-н, Дубечино д",55.07668,37.742276
1427,"Аркадия","Московская обл, Истринский р-н, Истра",55.914287,36.860284
1428,"Светлозерье","Московская обл, Ступинский р-н, Мещерино с",55.19668,38.358422
1429,"Степаньковская слобода","Московская обл, Пушкинский р-н, Степаньково д",56.065424,37.815283
1430,"Континентъ","Московская обл, Раменский р-н, Фенино д",55.579938,38.401487
1431,"Гигирево","Московская обл, Одинцовский р-н, Гигирево д",55.694479,36.689442
1432,"Берег FM","Московская обл, Домодедовский р-н, Растуново с",55.274934,37.841136
1433,"Усадьба Горки","Московская обл, Клинский р-н, Тархово д",56.202316,36.323199
1434,"Андреевский парк","Московская обл, Солнечногорский р-н, Баранцево д",55.95628,37.122331
1435,"Русская деревня","Московская обл, Истринский р-н, Падиково д",55.824663,36.995399
1436,"Олвиль","Московская обл, Чеховский р-н",55.108354,37.367526
1437,"Английский квартал","Московская обл, Истринский р-н, Аносино д",55.837748,37.013231
1438,"Березкино","Московская обл, Серпуховский р-н",54.944978,37.544432
1439,"Остров","Московская обл, Ленинский р-н, Остров с",55.547657,37.771571
1440,"Абрамцево-3","Московская обл, Сергиево-Посадский р-н, Жучки д",56.246851,37.94552
1441,"Зеленый квартал","Московская обл, Раменский р-н, Сидорово д",55.569082,38.615053
1442,"Солнечная поляна","Московская обл, Клинский р-н, Языково д",56.283929,36.592828
1443,"Ясная поляна","Московская обл, Раменский р-н, Бахтеево д",55.583495,38.518097
1444,"Карпово Кантри Клаб","Московская обл, Раменский р-н, Карпово с",55.57975,38.565897
1445,"Старниково","Московская обл, Раменский р-н, Старниково д",55.365458,38.392729
1446,"Озеро жемчужин","Московская обл, Клинский р-н, Тархово д",56.202316,36.323199
1447,"Старое село","Московская обл, Можайский р-н, Андреевское д",55.388491,35.993975
1448,"Покровские ворота","Московская обл, Клинский р-н, Покровско-Жуково д",56.114566,36.426083
1449,"Игнатьево","Московская обл, Раменский р-н, Кузяево д",55.611612,38.534456
1450,"Александрово Парк","Московская обл, Можайский р-н, Александрово д",55.518443,36.11223
1451,"Селевино Парк","Московская обл, Клинский р-н, Селевино д",56.438199,36.669293
1452,"Назарьево","Московская обл, Клинский р-н, Дмитриева д",56.342076,36.573326
1453,"RADOSTЬ (Радость)","Московская обл, Истринский р-н, Троица д",55.907975,36.586118
1454,"Крёкшино","Москва, Новомосковский, Марушкинское",55.59516,37.208273
1455,"Прозоровское-Голицыно","Московская обл, Раменский р-н, Хрипань д",55.638252,38.16347
1456,"Кстинское озеро","Московская обл, Пушкинский р-н, Раково д",56.105802,37.765758
1457,"Дома России","Московская обл, Дмитровский р-н, Икша п",56.173658,37.502759
1458,"Власово","Московская обл, Раменский р-н, Власово д",55.670118,38.157029
1459,"Victoria city","Московская обл, Электросталь",55.784445,38.444849
1460,"Лесная Рапсодия-2","Московская обл, Истринский р-н, Новодарьино д",55.891173,36.670452
1461,"Лесной пейзаж 2","Москва, Троицкий, Краснопахорское",55.421496,37.270661
1462,"Булгаково","Московская обл, Раменский р-н, Булгаково д",55.247169,38.414522
1463,"Лесной прибрежный","Московская обл, Раменский р-н, Поддубье д",55.322245,38.432147
1464,"Светлый берег","Московская обл, Раменский р-н, Поддубье д",55.322245,38.432147
1465,"Милашкино","Московская обл, Раменский р-н, Поддубье д",55.322245,38.432147
1466,"Андрейково-Лесное","Московская обл, Дмитровский р-н, Андрейково д",56.231698,37.314445
1467,"Новая Каменка","Москва, Троицкий, Первомайское",55.536573,37.158982
1468,"Венский лес","Московская обл, Серпуховский р-н, Съяново-2 д",55.035596,37.253602
1469,"Юсупово Life Park","Московская обл, Домодедовский р-н, Юсупово с",55.245532,37.755446
1470,"Александрово","Московская обл, Истринский р-н",55.913777,36.716562
1471,"Арбат","Московская обл, Дмитровский р-н, Новинки д",56.232238,37.666917
1472,"Спортвилль 2","Московская обл, Дмитровский р-н, Нерощино д",56.245985,37.624085
1473,"Садовниково","Московская обл, Сергиево-Посадский р-н, Садовниково д",56.532276,37.866927
1474,"Грибная поляна","Московская обл, Сергиево-Посадский р-н, Красная Сторожка д",56.416804,38.095808
1475,"Красная сторожка 2","Московская обл, Сергиево-Посадский р-н, Красная Сторожка д",56.416804,38.095808
1476,"Эсквайр Парк","Московская обл, Истринский р-н",55.913777,36.716562
1477,"Красная сторожка 1","Московская обл, Сергиево-Посадский р-н, Красная Сторожка д",56.416804,38.095808
1478,"Щучье озеро","Московская обл, Каширский р-н, Елькино д",54.770027,38.062122
1479,"Шарапово","Московская обл, Чеховский р-н, Шарапово п/о",55.186247,37.255291
1480,"Новое Калянино","Московская обл, Ступинский р-н, Калянино д",55.050793,37.819406
1481,"Можайская слобода","Московская обл, Можайский р-н, Тихоново д",55.542946,35.98651
1482,"Ильинская слобода","Московская обл, Можайский р-н, Ильинская Слобода д",55.52356,36.018733
1483,"Кубинский лес","Московская обл, Наро-Фоминский р-н, Обухово д",55.489259,36.648119
1484,"Можайское озеро","Московская обл, Можайский р-н, Шаликово д",55.508774,36.218779
1485,"Головино-2","Московская обл, Павлово-Посадский р-н",55.829669,38.696458
1486,"Артёмово","Московская обл, Пушкинский р-н, Артемово д",56.209686,37.913711
1487,"Берендеев лес","Московская обл, Серпуховский р-н, Оболенск рп",54.975315,37.269296
1488,"Земляника","Московская обл, Серпуховский р-н, Оболенск рп",54.975315,37.269296
1489,"Глинки","Московская обл, Истринский р-н, Глинки д",55.892471,36.842236
1490,"Клеверово","Московская обл, Орехово-Зуевский р-н, Демихово (Демиховское с/п) д",55.79892,38.881448
1491,"@Veranda","Московская обл, Серпуховский р-н",54.944978,37.544432
1492,"Арнеево-2","Московская обл, Серпуховский р-н, Арнеево д",54.970293,37.573393
1493,"Петрухино-2","Московская обл, Серпуховский р-н, Всходы д",54.974835,37.546273
1494,"Мартьяново озеро","Московская обл, Серпуховский р-н, Мартьяново д",54.958715,37.555148
1495,"Квартал 2-5","Московская обл, Раменский р-н, Толмачево д",55.36271,38.225633
1496,"Журавлёво 2","Московская обл",55.815792,37.380031
1497,"Экодолье Обнинск","Московская обл",55.815792,37.380031
1498,"Долина озер","Московская обл",55.815792,37.380031
1499,"Ворсин луг","Московская обл",55.815792,37.380031
1500,"Сосновые берега 2","Московская обл",55.815792,37.380031
1501,"Финеев луг","Московская обл",55.815792,37.380031
1502,"Витро кантри","Московская обл, Одинцовский р-н, Троицкое с",55.654782,36.64617
1503,"Павловы озера","Московская обл, Истринский р-н, Исаково д",55.830852,37.149263
1504,"Большие озера","Московская обл, Раменский р-н, Починки д",55.367111,38.115553
1505,"Светлое озеро","Московская обл, Раменский р-н, Белозериха д",55.471883,38.257748
1506,"Озерный край","Московская обл, Раменский р-н, Салтыково с",55.388139,38.119686
1507,"Сосновые дали","Московская обл, Раменский р-н, Верхнее Мячково с",55.550662,37.97962
1508,"Изумрудная опушка","Московская обл, Раменский р-н, Белозериха д",55.471883,38.257748
1509,"Бритово","Московская обл, Раменский р-н, Бритово д",55.478495,38.146968
1510,"Раменское Полесье","Московская обл, Раменский р-н, Старниково д",55.365458,38.392729
1511,"Алексеевские сосны","Московская обл, Ногинский р-н, Алексеевка д",55.787184,38.309554
1512,"Королевские Сосны","Московская обл, Королев",55.922212,37.854629
1513,"Истринские холмы","Московская обл, Истринский р-н, Троица д",55.907975,36.586118
1514,"Новая Дача","Московская обл, Дмитровский р-н, Свистуха д",56.256198,37.540874
1515,"Западная резиденция","Московская обл, Одинцовский р-н, Николино Поле п",55.773135,36.85342
1516,"Родной град","Московская обл, Воскресенский р-н, Ворщиково д",55.459517,38.373657
1517,"Виктория","Московская обл, Бронницы",55.425399,38.264027
1518,"Малина-Village","Московская обл, Клинский р-н, Микляево д",56.564365,36.930298
1519,"Малина Лесное","Московская обл, Клинский р-н, Микляево д",56.564365,36.930298
1520,"Русская сказка","Московская обл, Раменский р-н, Малышево д",55.370273,38.146303
1521,"Зеленая мельница","Московская обл, Воскресенский р-н, Ворщиково д",55.459517,38.373657
1522,"Марусины березы","Московская обл, Люберецкий р-н, Марусино д",55.694322,37.974823
1523,"Марусины просторы","Московская обл, Люберецкий р-н, Марусино д",55.694322,37.974823
1524,"Ильинский квартал","Московская обл, Красногорский р-н, Красногорск",55.831099,37.330192
1525,"Старниково-2","Московская обл, Раменский р-н, Старниково д",55.365458,38.392729
1526,"Домодедово таун","Московская обл, Домодедовский р-н, Востряково мкр",55.395343,37.807279
1527,"Сады Востока","Московская обл, Раменский р-н, Григорово (Гжельский с/о) д",55.64063,38.394391
1528,"Бисеровский Лес","Московская обл, Раменский р-н, Бисерово (Юровский с/о) д",55.512541,38.432416
1529,"Банино","Московская обл, Дмитровский р-н, Банино д",56.457826,37.339589
1530,"Деулино-2","Московская обл, Сергиево-Посадский р-н, Деулино с",56.35345,38.118814
1531,"Первопрестольные холмы","Московская обл, Раменский р-н, Белозериха д",55.471883,38.257748
1532,"Белоозерский","Московская обл, Воскресенский р-н, Фаустово с",55.437633,38.488992
1533,"Сиеста Восточная","Московская обл, Домодедовский р-н, Вахромеево д",55.34084,37.772029
1534,"Берёзки (го Домодедово)","Московская обл, Домодедовский р-н, Сонино д",55.288178,37.784515
1535,"Леоново","Московская обл, Чеховский р-н, Леоново д",55.118122,37.077541
1536,"Монаково","Московская обл, Наро-Фоминский р-н, Монаково д",55.375015,36.240042
1537,"Денисьево","Московская обл, Можайский р-н, Денисьево д",55.517679,36.16514
1538,"Борисьево","Московская обл, Можайский р-н, Денисьево д",55.517679,36.16514
1539,"Михайлово","Московская обл, Можайский р-н, Денисьево д",55.517679,36.16514
1540,"Николины холмы","Московская обл, Наро-Фоминский р-н, Новоникольское д",55.37614,36.527341
1541,"Совино","Московская обл, Клинский р-н, Вертково д",56.118575,36.405395
1542,"Узоры","Московская обл, Наро-Фоминский р-н, Плесенское д",55.381869,36.545936
1543,"Загородный","Московская обл, Наро-Фоминский р-н, Чешково д",55.396412,36.614873
1544,"Старая Мельница-2","Московская обл, Бронницы",55.425399,38.264027
1545,"Соколиное гнездо","Московская обл, Солнечногорский р-н, Соколово д",56.039273,36.903232
1546,"Рыбацкая деревня","Московская обл, Сергиево-Посадский р-н, Пальчино д",56.427602,37.850083
1547,"Причал у дачи","Московская обл, Можайский р-н, Горетово д",55.609019,35.820412
1548,"Селевино парк","Московская обл, Клинский р-н, Ямуга д",56.389847,36.664415
1549,"Зыковский уездЪ","Московская обл, Истринский р-н, Зыково д",56.065324,36.69679
1550,"Lake Club","Московская обл, Истринский р-н, Лыщево д",56.088614,36.738221
1551,"Околица","Московская обл, Одинцовский р-н, Солослово д",55.693957,37.146442
1552,"Северный берег","Московская обл, Пушкинский р-н, Балабаново д",56.176359,37.733985
1553,"Верхнерузский","Московская обл, Шаховской р-н, Бролино д",55.97263,35.442284
1554,"Лесное","Московская обл, Наро-Фоминский р-н, Шапкино д",55.360597,36.547876
1555,"Лесные пруды","Московская обл, Наро-Фоминский р-н, Шапкино д",55.360597,36.547876
1556,"Николины Сады","Московская обл, Наро-Фоминский р-н, Новоникольское д",55.37614,36.527341
1557,"Николины озера","Московская обл, Наро-Фоминский р-н, Новоникольское д",55.37614,36.527341
1558,"Исток","Московская обл, Наро-Фоминский р-н, Чешково д",55.396412,36.614873
1559,"Тихая речка","Московская обл, Наро-Фоминский р-н, Новинское д",55.425931,36.611477
1560,"Луговое","Московская обл, Наро-Фоминский р-н, Шапкино д",55.360597,36.547876
1561,"Дороховы дачи","Московская обл, Рузский р-н, Дорохово п",55.550932,36.376155
1562,"Шапкино Парк","Московская обл, Наро-Фоминский р-н, Шапкино д",55.360597,36.547876
1563,"Ульянкины Горки","Московская обл, Домодедовский р-н, Кузьминское с",55.248175,37.88907
1564,"Вельяминовский УездЪ","Московская обл, Домодедовский р-н, Поздново д",55.179982,37.894406
1565,"Volna","Московская обл, Можайский р-н, Блазново д",55.549465,35.931372
1566,"Татьянино","Московская обл, Истринский р-н, Красный Поселок д",55.804698,36.981385
1567,"Малое Лесное","Московская обл, Мытищинский р-н, Малое Ивановское д",56.077749,37.591261
1568,"Вишневый сад 2","Московская обл, Клинский р-н, Алексейково д",56.091838,36.555809
1569,"Кузяево парк 2","Московская обл, Раменский р-н, Кузяево д",55.611612,38.534456
1570,"Владимировка","Московская обл, Раменский р-н, Владимировка д",55.34881,38.37222
1571,"Усадьба Вороново","Московская обл, Раменский р-н, Шевлягино д",55.590719,38.579973
1572,"Елгозино парк","Московская обл, Клинский р-н, Пупцево д",56.243014,36.350032
1573,"Лыткино-2","Московская обл, Можайский р-н, Лыткино д",55.438047,36.036636
1574,"Агрокомплекс Аринино","Московская обл, Раменский р-н, Сидорово д",55.569082,38.615053
1575,"Лукошино","Московская обл, Раменский р-н, Жирово д",55.597871,38.520451
1576,"Васильки","Московская обл, Раменский р-н, Новохаритоново с",55.590933,38.501389
1577,"Кузяево Парк","Московская обл, Раменский р-н, Кузяево д",55.611612,38.534456
1578,"Владимирские усадьбы","Московская обл, Раменский р-н, Татаринцево с",55.358683,38.347256
1579,"Княжий берег","Московская обл, Раменский р-н, Марково с",55.458746,38.234122
1580,"Вельга Парк","Московская обл, Клинский р-н, Поджигородово д",56.117557,36.65925
1581,"Рахманово парк","Московская обл, Пушкинский р-н, Рахманово с",56.155909,37.989035
1582,"Опушкино (Новорижское шоссе)","Московская обл, Истринский р-н, Лучинское с/п",55.913777,36.716562
1583,"Сновидово","Московская обл, Одинцовский р-н, Сосны п",55.731688,37.058102
1584,"Лесная пристань 2","Московская обл, Истринский р-н, Сафонтьево д",55.976901,36.831385
1585,"Бунин-парк","Москва, Новомосковский, Воскресенское",55.529619,37.445752
1586,"Лосиный парк-1","Московская обл, Щелковский р-н, Оболдино д",55.881399,37.928857
1587,"Коломенские сады-2","Московская обл, Коломенский р-н, Черкизово с",55.202229,38.740413
1588,"Пестовские Берега","Московская обл, Дмитровский р-н, Драчево д",56.301843,37.625073
1589,"Рождествено 1","Московская обл, Шаховской р-н, Рождествено д",56.043658,35.588036
1590,"Театр-град","Московская обл, Коломенский р-н, Черкизово с",55.202229,38.740413
1591,"Новорижский пляж","Московская обл, Шаховской р-н, Черленково с",55.947101,35.48119
1592,"Муравино","Московская обл, Раменский р-н, Дьяково д",55.438052,38.162607
1593,"Вальдорф","Московская обл, Пушкинский р-н",56.088534,37.913567
1594,"Пятница","Московская обл, Волоколамский р-н, Бражниково д",55.838642,35.871831
1595,"Лосиный Парк-2","Московская обл, Щелковский р-н, Оболдино д",55.881399,37.928857
1596,"Лосиный Остров","Московская обл, Щелковский р-н, Оболдино д",55.881399,37.928857
1597,"Шмелево парк","Московская обл, Раменский р-н, Редькино д",55.520181,37.971257
1598,"Земля Возрождения Палихово","Московская обл, Серпуховский р-н, Палихово д",54.91764,37.49462
1599,"Конверсия","Москва, Троицкий, Михайлово-Ярцевское",55.397552,37.139687
1600,"Шишкин","Московская обл, Истринский р-н, Троица д",55.907975,36.586118
1601,"Ганновер-Вилладж","Московская обл, Шаховской р-н, Стариково д",56.028671,35.584137
1602,"Тихие Зори","Московская обл, Ногинский р-н, Дядькино д",55.957807,38.263048
1603,"Серебряная роща","Московская обл, Истринский р-н, Дедовск",55.859984,37.120669
1604,"Вудвиль","Московская обл, Клинский р-н, Акатьево д",56.306832,36.842299
1605,"Хлыбы","Московская обл, Дмитровский р-н, Хлыбы д",56.23472,37.753002
1606,"Заповедный парк 2","Московская обл, Щелковский р-н, Серково д",55.896524,37.963963
1607,"Влондон","Московская обл, Ленинский р-н, Коробово д",55.53342,37.821741
1608,"Красный Стан","Московская обл, Можайский р-н, Красный Стан д",55.585408,36.116317
1609,"Окский лес","Московская обл, Серпуховский р-н, Липицы с",54.847074,37.482178
1610,"Цветочные берега","Московская обл, Волоколамский р-н, Солодово д",55.842903,35.916199
1611,"Русская Венеция","Московская обл, Раменский р-н, Бояркино д",55.455969,38.296914
1612,"Солнечные холмы","Московская обл, Истринский р-н, Хволово д",55.872415,36.638508
1613,"Спас-Завидово","Московская обл, Клинский р-н, Захарово(Петровская с/а) д",56.197273,36.451775
1614,"Высокий Берег","Московская обл, Истринский р-н, Лечищево д",56.050159,36.816455
1615,"EastЛандия (ИстЛандия)","Московская обл, Волоколамский р-н, Клишино д",55.907935,35.840274
1616,"Истринский родник","Московская обл, Истринский р-н, Бужарово д",55.983892,36.799701
1617,"Ивушкино","Московская обл, Домодедовский р-н, Матчино д",55.243834,37.793157
1618,"Завидово Хонка","Московская обл",55.815792,37.380031
1619,"Гжель-Плюс","Московская обл, Раменский р-н",55.478113,38.208511
1620,"Новодвор","Москва, Новомосковский, Сосенское",55.57833,37.465892
1621,"Боково","Московская обл, Ногинский р-н, Боково д",55.980845,38.26215
1622,"Бариново Парк","Московская обл, Подольский р-н, Сынково с",55.351298,37.63235
1623,"BRICKWOOD (Бриквуд)","Московская обл, Красноармейский го, Красноармейск",56.166281,38.253238
1624,"Баден Хиллс","Москва, Новомосковский, Десёновское",55.499571,37.36661
1625,"FreeDom (Фридом)","Московская обл, Красногорский р-н, Красногорск",55.831099,37.330192
1626,"Четыре сезона 2","Московская обл, Одинцовский р-н",55.641737,36.900798
1627,"Радости парк","Московская обл, Клинский р-н",56.364241,36.610768
1628,"Лесной Ручей 3,4","Московская обл, Одинцовский р-н",55.641737,36.900798
1629,"Барвиха XXI","Московская обл, Одинцовский р-н, Рождественно д",55.717645,37.279276
1630,"Ромашково XXI","Московская обл, Одинцовский р-н, Ромашково с",55.733852,37.334513
1631,"Причал","Московская обл, Клинский р-н, Селинское с",56.309888,36.631941
1632,"Юрьевские Пруды","Московская обл, Клинский р-н",56.364241,36.610768
1633,"Полесье","Московская обл, Дмитровский р-н",56.389632,37.450243
1634,"Кореньки","Московская обл, Истринский р-н, Кореньки д",55.97802,36.482883
1635,"Новая деревня","Московская обл, Серпуховский р-н, Новая д",54.990302,37.380884
1636,"Троицкое-Машутино","Московская обл, Сергиево-Посадский р-н, Шеметово с",56.524884,38.075372
1637,"Ящерки","Московская обл, Серпуховский р-н, Правое Ящерово д",54.947579,37.519
1638,"Спасс-Торбеево","Московская обл, Сергиево-Посадский р-н, Спас-Торбеево д",56.181479,38.17292
1639,"Рязанцы","Московская обл, Сергиево-Посадский р-н, Рязанцы д",56.230482,38.105232
1640,"Фламандия","Московская обл, Домодедовский р-н, Белые Столбы мкр",55.334071,37.848062
1641,"Madison Park (Медисон Парк)","Московская обл, Одинцовский р-н, Липки д",55.768274,36.951319
1642,"Буковая аллея","Московская обл, Ногинский р-н, Кабаново д",55.883494,38.276352
1643,"Акватория Мечты","Московская обл, Солнечногорский р-н, Лопотово д",56.063992,36.85678
1644,"Солнечный берег","Московская обл, Раменский р-н, Верхнее Мячково с",55.550662,37.97962
1645,"Лебединое озеро","Московская обл, Воскресенский р-н, Барановское с",55.403727,38.757481
1646,"Тихий берег","Московская обл, Истринский р-н, Никольское д",55.965551,36.900609
1647,"Клязьма","Московская обл, Пушкинский р-н, Клязьма мкр",55.978161,37.833842
1648,"Медвежьи озёра","Московская обл, Щелковский р-н, Медвежьи озера",56.002017,38.134176
1649,"Изумрудный город","Московская обл, Химки",55.88874,37.43039
1650,"Рублёвский","Московская обл, Одинцовский р-н, Борки д",55.713791,37.101832
1651,"Тихий луг","Московская обл, Можайский р-н, Тропарево с",55.375455,35.90144
1652,"Изумрудный век","Московская обл, Одинцовский р-н, Бузаево д",55.718233,37.119645
1653,"Атеевка парк","Московская обл, Клинский р-н, Атеевка д",56.504655,37.010033
1654,"Адмирал","Московская обл, Мытищинский р-н, Хлябово д",56.122751,37.547827
1655,"Повадино","Московская обл, Солнечногорский р-н",56.121496,37.057958
1656,"Заречье 2","Московская обл, Рузский р-н, Тарусса д",55.494701,36.32089
1657,"Окские Сады","Московская обл, Ступинский р-н",55.058214,38.097623
1658,"Chateau Souverain (Шато Соверен)","Московская обл, Красногорский р-н, Тимошкино д",55.77155,37.102245
1659,"Раздоры","Московская обл, Одинцовский р-н, Раздоры д",55.746309,37.304527
1660,"Варежки","Московская обл, Щелковский р-н, Супонево д",55.880667,37.94199
1661,"Грибово Таун","Московская обл, Одинцовский р-н, Лесной Городок дп",55.636239,37.212612
1662,"Брусничное","Московская обл, Истринский р-н, Духанино д",55.974363,36.948372
1663,"Кленовая аллея (Киевское шоссе)","Москва, Троицкий, Первомайское",55.536573,37.158982
1664,"Никольское озеро","Московская обл, Можайский р-н, Никольское д",55.675062,35.576861
1665,"Подолье","Москва, Троицкий, Щаповское",55.391631,37.380848
1666,"Снежная долина","Московская обл, Чеховский р-н, Бавыкино д",55.083637,37.592878
1667,"Victoria Club","Московская обл, Ногинский р-н, Иванисово д",55.89032,38.438767
1668,"Уваровский уезд","Московская обл, Наро-Фоминский р-н, Уварово д",55.521415,37.200098
1669,"Лесные двоpики","Московская обл, Щелковский р-н, Оболдино д",55.881399,37.928857
1670,"Добродеево","Московская обл, Рузский р-н, Федчино д",55.838046,36.345917
1671,"SmartVille","Московская обл, Дмитровский р-н, Кузяево д",56.132579,37.441179
1672,"Живописный берег","Московская обл, Ступинский р-н, Хатунь с",55.001644,37.831892
1673,"«Искона River Club» (Искона Ривер Клаб)","Московская обл, Можайский р-н, Тетерино д",55.539243,36.011394
1674,"Софьино-2","Московская обл, Раменский р-н, Бритово д",55.478495,38.146968
1675,"Апрель (Новорижское шоссе)","Московская обл, Истринский р-н, Гидроузла им Куйбышева п",55.994023,36.814173
1676,"Овчино","Московская обл, Дмитровский р-н, Овчино д",56.278013,37.267355
1677,"Свистуха","Московская обл, Дмитровский р-н, Левково д",56.191418,37.319844
1678,"Салтыковка","Московская обл, Балашиха го, Салтыковка мкр",55.762713,37.922461
1679,"Минзаг","Москва, Троицкий, Краснопахорское",55.421496,37.270661
1680,"Эко Озеро","Московская обл, Волоколамский р-н, Судниково д",55.888382,36.024743
1681,"Новотроицкий","Москва, Троицкий, Первомайское",55.536573,37.158982
1682,"Усадьбы Удино​","Московская обл, Дмитровский р-н, Удино д",56.148518,37.317122
1683,"Марк Твен","Москва, Юго-Западный, Бутово Южное",55.542396,37.531523
1684,"Антошкино","Московская обл, Чеховский р-н, Новый Быт с",55.059817,37.605113
1685,"Покровские холмы","Москва, Северо-Западный, Покровское-Стрешнево",55.82937,37.451546
1686,"Ваньково","Московская обл, Дмитровский р-н, Ваньково д",56.268047,37.701223
1687,"Рубикон","Московская обл, Химки",55.88874,37.43039
1688,"Родники","Московская обл, Истринский р-н, Борки д",55.837171,36.944258
1689,"Морозко","Московская обл, Волоколамский р-н, Морозово д",56.141046,36.29607
1690,"Дубрава","Московская обл, Истринский р-н, Красновидово д",55.847609,36.946917
1691,"Шульгино","Московская обл, Волоколамский р-н, Шульгино д",55.836352,35.926997
1692,"7 Hills","Московская обл, Одинцовский р-н, Знаменское с",55.736361,37.150439
1693,"Изумрудные кроны","Московская обл",55.815792,37.380031
1694,"Валуевская слобода","Москва, Новомосковский, Сосенское",55.57833,37.465892
1695,"Каширские озера","Московская обл, Каширский р-н, Колтово д",54.817184,38.063703
1696,"Нехлюдово","Московская обл, Мытищинский р-н, Нагорное п",55.903105,37.629313
1697,"Огонек","Москва, Троицкий, Новофёдоровское",55.42564,36.931879
1698,"Ливадия на Истре","Московская обл, Истринский р-н, Красновидово д",55.847609,36.946917
1699,"Переделкино","Московская обл, Одинцовский р-н, Переделки д",55.66568,37.331378
1700,"Белая гора 2","Московская обл, Истринский р-н, Аносино д",55.837748,37.013231
1701,"Нагорное 2","Московская обл, Мытищинский р-н, Вешки п",55.924683,37.612129
1702,"Новоалександрово","Московская обл, Мытищинский р-н, Новоалександрово п",55.977425,37.574507
1703,"Honka Club (Хонка Клаб)","Московская обл, Дмитровский р-н, Игнатово с",56.174885,37.533517
1704,"Лес","Московская обл, Одинцовский р-н, Шульгино д",55.728084,37.29576
1705,"Новогорские березки","Московская обл, Химки",55.88874,37.43039
1706,"Экопарк Honka (Экопарк Хонка)","Московская обл, Волоколамский р-н, Титово д",55.833966,35.80249
1707,"Тимошкино","Московская обл, Красногорский р-н, Тимошкино д",55.77155,37.102245
1708,"Рига Рига","Московская обл, Красногорский р-н, Тимошкино д",55.77155,37.102245
1709,"Аниково","Московская обл, Одинцовский р-н, Аниково д",55.701866,36.696476
1710,"Поляны","Московская обл, Истринский р-н, Никольское д",55.965551,36.900609
1711,"Исаково Парк","Московская обл, Солнечногорский р-н, Пятница д",56.092431,36.801237
1712,"Исаковский залив","Московская обл, Солнечногорский р-н, Пятница д",56.092431,36.801237
1713,"Парус","Московская обл, Солнечногорский р-н, Пятница д",56.092431,36.801237
1714,"Бушарино","Московская обл, Одинцовский р-н, Бушарино д",55.672671,36.684295
1715,"Роща","Московская обл, Истринский р-н, Красный п",55.934482,36.718655
1716,"Елочка","Московская обл, Красногорский р-н, Бузланово д",55.771039,37.198832
1717,"Чудо Град","Московская обл, Серпуховский р-н, Петрухино д",54.990003,37.565021
1718,"Имение Лесное","Московская обл, Чеховский р-н, Пронино д",55.05646,37.583329
1719,"Взгорье","Московская обл, Чеховский р-н, Мальцы д",55.079009,37.64348
1720,"Сосновый берег-4","Московская обл, Чеховский р-н, Голыгино д",55.046785,37.603963
1721,"Сосновый берег-3","Московская обл, Чеховский р-н, Еськино д",55.051953,37.575612
1722,"Лесная Поляна-2","Московская обл, Чеховский р-н, Плешкино д",55.035694,37.583796
1723,"Никольский парк","Московская обл, Красногорский р-н, Красногорск",55.831099,37.330192
1724,"Загорянка парк","Московская обл, Щелковский р-н, Оболдино д",55.881399,37.928857
1725,"Коняшино","Московская обл, Раменский р-н, Коняшино д",55.625999,38.425293
1726,"Лес и река","Московская обл, Истринский р-н, Лобаново д",55.825148,37.117516
1727,"Аляска","Московская обл, Пушкинский р-н, Балабаново д",56.176359,37.733985
1728,"Велес-Град","Московская обл, Шаховской р-н",55.983111,35.460062
1729,"Боровички","Московская обл, Наро-Фоминский р-н, Митяево д",55.371495,36.145072
1730,"Новое Бехтеево","Московская обл, Домодедовский р-н, Бехтеево д",55.311892,37.889843
1731,"Ruzza","Московская обл, Волоколамский р-н, Глазово д",55.804729,35.923646
1732,"Я-Village","Московская обл, Дмитровский р-н, Яхрома",56.28989,37.483858
1733,"Трилогия","Московская обл, Дмитровский р-н, Комаровка д",56.181534,37.279159
1734,"Дмитровка Светлая","Московская обл, Дмитровский р-н, Дмитровка д",56.136382,37.30919
1735,"Сергово","Московская обл, Можайский р-н",55.504766,35.747442
1736,"Некрасовские дачи","Московская обл, Дмитровский р-н, Горки Сухаревские д",56.098692,37.481046
1737,"Усово","Московская обл, Одинцовский р-н, Усово с",55.729934,37.209459
1738,"Smart Hill","Московская обл, Дмитровский р-н, Подосинки п",56.206817,37.548519
1739,"Рига Парк","Московская обл, Истринский р-н, Рождествено с",55.853036,37.05326
1740,"Сумароково","Московская обл, Ступинский р-н, Гридюкино д",55.091886,37.79242
1741,"Сухановские дачи","Московская обл, Ленинский р-н, Суханово д",55.518413,37.655733
1742,"Никольские дачи","Москва, Троицкий, Вороновское",55.323848,37.123122
1743,"Спорт Таун","Москва, Новомосковский, Филимонковское",55.570014,37.322368
1744,"Иван Купала","Московская обл",55.815792,37.380031
1745,"Гольфстрим","Московская обл, Истринский р-н, Никольское д",55.965551,36.900609
1746,"Усадьба Коровино","Московская обл, Можайский р-н, Борисово с",55.420934,36.0518
1747,"Мартово","Московская обл, Волоколамский р-н, Щекотово д",55.894863,35.817564
1748,"Княжье озеро","Московская обл, Истринский р-н, Павловская Слобода с",55.813465,37.079724
1749,"Усадьбы Усово","Московская обл, Одинцовский р-н, Усово с",55.729934,37.209459
1750,"Вик","Москва, Троицкий, Новофёдоровское",55.42564,36.931879
1751,"Сказочный лес","Московская обл, Серпуховский р-н, Московка д",55.01055,37.390739
1752,"Фирсановка Life","Московская обл, Солнечногорский р-н, Подолино д",55.930645,37.265478
1753,"Мелихово","Московская обл, Дмитровский р-н, Мелихово д",56.194063,37.627211
1754,"Никольская слобода","Московская обл, Красногорский р-н, Поздняково д",55.789639,37.219125
1755,"Белые росы","Московская обл, Истринский р-н, Кострово д",55.893778,36.69653
1756,"Петровский","Московская обл, Красногорский р-н, Петрово-Дальнее с",55.751366,37.178691
1757,"Пенаты","Московская обл, Истринский р-н, Веледниково д",55.799765,37.116016
1758,"Согласие 1","Москва, Троицкий, Первомайское",55.536573,37.158982
1759,"Три жеребёнка","Московская обл, Воскресенский р-н, Цибино д",55.467984,38.414162
1760,"Дольче-Вита","Московская обл, Истринский р-н, Адуево д",55.962478,36.975151
1761,"Ёлки","Московская обл, Клинский р-н, Ширяево д",56.389737,36.863383
1762,"Троицкая ривьера","Москва, Троицкий",55.355771,37.14699
